{
  "type": "FeatureCollection",
  "features": [
    {
      "type": "Feature",
      "id": "akama-and-black-temple-akama-focus",
      "properties": {
        "name": "Akama editorial story focus",
        "contentStatus": "research",
        "styleRole": "site",
        "geographicCertainty": "unknown"
      },
      "geometry": {
        "type": "Point",
        "coordinates": [
          2500,
          4750
        ]
      }
    },
    {
      "type": "Feature",
      "id": "akama-and-black-temple-maiev-shadowsong-focus",
      "properties": {
        "name": "Maiev Shadowsong editorial story focus",
        "contentStatus": "research",
        "styleRole": "site",
        "geographicCertainty": "unknown"
      },
      "geometry": {
        "type": "Point",
        "coordinates": [
          3750,
          4750
        ]
      }
    },
    {
      "type": "Feature",
      "id": "akama-and-black-temple-ashtongue-deathsworn-focus",
      "properties": {
        "name": "Ashtongue Deathsworn editorial story focus",
        "contentStatus": "research",
        "styleRole": "site",
        "geographicCertainty": "unknown"
      },
      "geometry": {
        "type": "Point",
        "coordinates": [
          5000,
          4750
        ]
      }
    },
    {
      "type": "Feature",
      "id": "akama-and-black-temple-ashtongue-corruptors-focus",
      "properties": {
        "name": "Ashtongue Corruptors editorial story focus",
        "contentStatus": "research",
        "styleRole": "site",
        "geographicCertainty": "unknown"
      },
      "geometry": {
        "type": "Point",
        "coordinates": [
          6250,
          4750
        ]
      }
    },
    {
      "type": "Feature",
      "id": "akama-and-black-temple-coilfang-naga-focus",
      "properties": {
        "name": "Vashj’s Coilfang followers editorial story focus",
        "contentStatus": "research",
        "styleRole": "site",
        "geographicCertainty": "unknown"
      },
      "geometry": {
        "type": "Point",
        "coordinates": [
          7500,
          4750
        ]
      }
    },
    {
      "type": "Feature",
      "id": "akama-and-black-temple-seer-udalo-focus",
      "properties": {
        "name": "Seer Udalo editorial story focus",
        "contentStatus": "research",
        "styleRole": "site",
        "geographicCertainty": "unknown"
      },
      "geometry": {
        "type": "Point",
        "coordinates": [
          2500,
          4830
        ]
      }
    },
    {
      "type": "Feature",
      "id": "akama-and-black-temple-seer-olum-focus",
      "properties": {
        "name": "Seer Olum editorial story focus",
        "contentStatus": "research",
        "styleRole": "site",
        "geographicCertainty": "unknown"
      },
      "geometry": {
        "type": "Point",
        "coordinates": [
          3750,
          4830
        ]
      }
    },
    {
      "type": "Feature",
      "id": "akama-and-black-temple-seer-kanai-focus",
      "properties": {
        "name": "Seer Kanai editorial story focus",
        "contentStatus": "research",
        "styleRole": "site",
        "geographicCertainty": "unknown"
      },
      "geometry": {
        "type": "Point",
        "coordinates": [
          5000,
          4830
        ]
      }
    },
    {
      "type": "Feature",
      "id": "akama-and-black-temple-xi-ri-focus",
      "properties": {
        "name": "Xi’ri editorial story focus",
        "contentStatus": "research",
        "styleRole": "site",
        "geographicCertainty": "unknown"
      },
      "geometry": {
        "type": "Point",
        "coordinates": [
          6250,
          4830
        ]
      }
    },
    {
      "type": "Feature",
      "id": "akama-and-black-temple-adal-focus",
      "properties": {
        "name": "A’dal editorial story focus",
        "contentStatus": "research",
        "styleRole": "site",
        "geographicCertainty": "unknown"
      },
      "geometry": {
        "type": "Point",
        "coordinates": [
          7500,
          4830
        ]
      }
    },
    {
      "type": "Feature",
      "id": "akama-and-black-temple-magtheridon-focus",
      "properties": {
        "name": "Magtheridon editorial story focus",
        "contentStatus": "research",
        "styleRole": "site",
        "geographicCertainty": "unknown"
      },
      "geometry": {
        "type": "Point",
        "coordinates": [
          2500,
          4910
        ]
      }
    },
    {
      "type": "Feature",
      "id": "akama-and-black-temple-oronu-the-elder-focus",
      "properties": {
        "name": "Oronu the Elder editorial story focus",
        "contentStatus": "research",
        "styleRole": "site",
        "geographicCertainty": "unknown"
      },
      "geometry": {
        "type": "Point",
        "coordinates": [
          3750,
          4910
        ]
      }
    },
    {
      "type": "Feature",
      "id": "akama-and-black-temple-kael-thas-sunstrider-focus",
      "properties": {
        "name": "Kael’thas Sunstrider editorial story focus",
        "contentStatus": "research",
        "styleRole": "site",
        "geographicCertainty": "unknown"
      },
      "geometry": {
        "type": "Point",
        "coordinates": [
          5000,
          4910
        ]
      }
    },
    {
      "type": "Feature",
      "id": "akama-and-black-temple-alar-focus",
      "properties": {
        "name": "Al’ar editorial story focus",
        "contentStatus": "research",
        "styleRole": "site",
        "geographicCertainty": "unknown"
      },
      "geometry": {
        "type": "Point",
        "coordinates": [
          6250,
          4910
        ]
      }
    },
    {
      "type": "Feature",
      "id": "akama-and-black-temple-rage-winterchill-focus",
      "properties": {
        "name": "Rage Winterchill editorial story focus",
        "contentStatus": "research",
        "styleRole": "site",
        "geographicCertainty": "unknown"
      },
      "geometry": {
        "type": "Point",
        "coordinates": [
          7500,
          4910
        ]
      }
    },
    {
      "type": "Feature",
      "id": "akama-and-black-temple-shade-of-akama-focus",
      "properties": {
        "name": "Shade of Akama editorial story focus",
        "contentStatus": "research",
        "styleRole": "site",
        "geographicCertainty": "unknown"
      },
      "geometry": {
        "type": "Point",
        "coordinates": [
          2500,
          4990
        ]
      }
    },
    {
      "type": "Feature",
      "id": "akama-and-black-temple-heart-of-fury-focus",
      "properties": {
        "name": "Heart of Fury editorial story focus",
        "contentStatus": "research",
        "styleRole": "site",
        "geographicCertainty": "unknown"
      },
      "geometry": {
        "type": "Point",
        "coordinates": [
          3750,
          4990
        ]
      }
    },
    {
      "type": "Feature",
      "id": "akama-and-black-temple-medallion-of-karabor-focus",
      "properties": {
        "name": "Medallion of Karabor editorial story focus",
        "contentStatus": "research",
        "styleRole": "site",
        "geographicCertainty": "unknown"
      },
      "geometry": {
        "type": "Point",
        "coordinates": [
          5000,
          4990
        ]
      }
    },
    {
      "type": "Feature",
      "id": "akama-and-black-temple-medallion-fragments-focus",
      "properties": {
        "name": "Medallion fragments editorial story focus",
        "contentStatus": "research",
        "styleRole": "site",
        "geographicCertainty": "unknown"
      },
      "geometry": {
        "type": "Point",
        "coordinates": [
          6250,
          4990
        ]
      }
    },
    {
      "type": "Feature",
      "id": "akama-and-black-temple-time-phased-phylactery-focus",
      "properties": {
        "name": "Time-Phased Phylactery editorial story focus",
        "contentStatus": "research",
        "styleRole": "site",
        "geographicCertainty": "unknown"
      },
      "geometry": {
        "type": "Point",
        "coordinates": [
          7500,
          4990
        ]
      }
    },
    {
      "type": "Feature",
      "id": "akama-and-black-temple-ashtongue-cowl-focus",
      "properties": {
        "name": "Ashtongue Cowl editorial story focus",
        "contentStatus": "research",
        "styleRole": "site",
        "geographicCertainty": "unknown"
      },
      "geometry": {
        "type": "Point",
        "coordinates": [
          2500,
          5070
        ]
      }
    },
    {
      "type": "Feature",
      "id": "akama-and-black-temple-tablets-of-baari-focus",
      "properties": {
        "name": "Tablets of Baa’ri editorial story focus",
        "contentStatus": "research",
        "styleRole": "site",
        "geographicCertainty": "unknown"
      },
      "geometry": {
        "type": "Point",
        "coordinates": [
          3750,
          5070
        ]
      }
    },
    {
      "type": "Feature",
      "id": "akama-and-black-temple-illidan-stormrage-focus",
      "properties": {
        "name": "Illidan Stormrage editorial story focus",
        "contentStatus": "research",
        "styleRole": "site",
        "geographicCertainty": "unknown"
      },
      "geometry": {
        "type": "Point",
        "coordinates": [
          5000,
          5070
        ]
      }
    }
  ]
}
