{
  "type": "FeatureCollection",
  "features": [
    {
      "type": "Feature",
      "id": "champion-of-the-naaru-outland-trials-khadgar-focus",
      "properties": {
        "name": "Khadgar editorial story focus",
        "contentStatus": "research",
        "styleRole": "site",
        "geographicCertainty": "unknown"
      },
      "geometry": {
        "type": "Point",
        "coordinates": [
          4700,
          4750
        ]
      }
    },
    {
      "type": "Feature",
      "id": "champion-of-the-naaru-outland-trials-adal-focus",
      "properties": {
        "name": "A’dal editorial story focus",
        "contentStatus": "research",
        "styleRole": "site",
        "geographicCertainty": "unknown"
      },
      "geometry": {
        "type": "Point",
        "coordinates": [
          5300,
          4750
        ]
      }
    },
    {
      "type": "Feature",
      "id": "champion-of-the-naaru-outland-trials-kargath-bladefist-focus",
      "properties": {
        "name": "Kargath Bladefist editorial story focus",
        "contentStatus": "research",
        "styleRole": "site",
        "geographicCertainty": "unknown"
      },
      "geometry": {
        "type": "Point",
        "coordinates": [
          4300,
          4830
        ]
      }
    },
    {
      "type": "Feature",
      "id": "champion-of-the-naaru-outland-trials-prisoners-of-the-shattered-halls-focus",
      "properties": {
        "name": "The prisoners in the Shattered Halls editorial story focus",
        "contentStatus": "research",
        "styleRole": "site",
        "geographicCertainty": "unknown"
      },
      "geometry": {
        "type": "Point",
        "coordinates": [
          5000,
          4830
        ]
      }
    },
    {
      "type": "Feature",
      "id": "champion-of-the-naaru-outland-trials-unused-executioners-axe-focus",
      "properties": {
        "name": "Unused Axe of the Executioner editorial story focus",
        "contentStatus": "research",
        "styleRole": "site",
        "geographicCertainty": "unknown"
      },
      "geometry": {
        "type": "Point",
        "coordinates": [
          5700,
          4830
        ]
      }
    },
    {
      "type": "Feature",
      "id": "champion-of-the-naaru-outland-trials-warlord-kalithresh-focus",
      "properties": {
        "name": "Warlord Kalithresh editorial story focus",
        "contentStatus": "research",
        "styleRole": "site",
        "geographicCertainty": "unknown"
      },
      "geometry": {
        "type": "Point",
        "coordinates": [
          4550,
          4830
        ]
      }
    },
    {
      "type": "Feature",
      "id": "champion-of-the-naaru-outland-trials-kalithresh-trident-focus",
      "properties": {
        "name": "Kalithresh’s Trident editorial story focus",
        "contentStatus": "research",
        "styleRole": "site",
        "geographicCertainty": "unknown"
      },
      "geometry": {
        "type": "Point",
        "coordinates": [
          5450,
          4830
        ]
      }
    },
    {
      "type": "Feature",
      "id": "champion-of-the-naaru-outland-trials-murmur-focus",
      "properties": {
        "name": "Murmur editorial story focus",
        "contentStatus": "research",
        "styleRole": "site",
        "geographicCertainty": "unknown"
      },
      "geometry": {
        "type": "Point",
        "coordinates": [
          4550,
          4830
        ]
      }
    },
    {
      "type": "Feature",
      "id": "champion-of-the-naaru-outland-trials-murmurs-essence-focus",
      "properties": {
        "name": "Murmur’s Essence editorial story focus",
        "contentStatus": "research",
        "styleRole": "site",
        "geographicCertainty": "unknown"
      },
      "geometry": {
        "type": "Point",
        "coordinates": [
          5450,
          4830
        ]
      }
    },
    {
      "type": "Feature",
      "id": "champion-of-the-naaru-outland-trials-millhouse-manastorm-focus",
      "properties": {
        "name": "Millhouse Manastorm editorial story focus",
        "contentStatus": "research",
        "styleRole": "site",
        "geographicCertainty": "unknown"
      },
      "geometry": {
        "type": "Point",
        "coordinates": [
          5000,
          4830
        ]
      }
    },
    {
      "type": "Feature",
      "id": "champion-of-the-naaru-outland-trials-magtheridon-focus",
      "properties": {
        "name": "Magtheridon editorial story focus",
        "contentStatus": "research",
        "styleRole": "site",
        "geographicCertainty": "unknown"
      },
      "geometry": {
        "type": "Point",
        "coordinates": [
          5000,
          4830
        ]
      }
    },
    {
      "type": "Feature",
      "id": "champion-of-the-naaru-outland-trials-tempest-key-focus",
      "properties": {
        "name": "The Tempest Key editorial story focus",
        "contentStatus": "research",
        "styleRole": "site",
        "geographicCertainty": "unknown"
      },
      "geometry": {
        "type": "Point",
        "coordinates": [
          5450,
          4830
        ]
      }
    }
  ]
}
