{
  "type": "FeatureCollection",
  "features": [
    {
      "type": "Feature",
      "id": "cipher-of-damnation-oronok-earthmender-torlok-focus",
      "properties": {
        "name": "Earthmender Torlok editorial focus",
        "contentStatus": "research",
        "styleRole": "site",
        "geographicCertainty": "unknown"
      },
      "geometry": {
        "type": "Point",
        "coordinates": [
          3900,
          3200
        ]
      }
    },
    {
      "type": "Feature",
      "id": "cipher-of-damnation-oronok-tormented-elemental-spirits-focus",
      "properties": {
        "name": "The tormented elemental spirits editorial focus",
        "contentStatus": "research",
        "styleRole": "site",
        "geographicCertainty": "unknown"
      },
      "geometry": {
        "type": "Point",
        "coordinates": [
          5000,
          3200
        ]
      }
    },
    {
      "type": "Feature",
      "id": "cipher-of-damnation-oronok-totem-of-spirits-focus",
      "properties": {
        "name": "Totem of Spirits editorial focus",
        "contentStatus": "research",
        "styleRole": "site",
        "geographicCertainty": "unknown"
      },
      "geometry": {
        "type": "Point",
        "coordinates": [
          6100,
          3200
        ]
      }
    },
    {
      "type": "Feature",
      "id": "cipher-of-damnation-oronok-oronok-torn-heart-focus",
      "properties": {
        "name": "Oronok Torn-heart editorial focus",
        "contentStatus": "research",
        "styleRole": "site",
        "geographicCertainty": "unknown"
      },
      "geometry": {
        "type": "Point",
        "coordinates": [
          3900,
          3800
        ]
      }
    },
    {
      "type": "Feature",
      "id": "cipher-of-damnation-oronok-domesticated-felboars-focus",
      "properties": {
        "name": "Oronok’s trained felboars editorial focus",
        "contentStatus": "research",
        "styleRole": "site",
        "geographicCertainty": "unknown"
      },
      "geometry": {
        "type": "Point",
        "coordinates": [
          5000,
          3800
        ]
      }
    },
    {
      "type": "Feature",
      "id": "cipher-of-damnation-oronok-ravenous-flayer-eggs-focus",
      "properties": {
        "name": "Ravenous Flayer eggs editorial focus",
        "contentStatus": "research",
        "styleRole": "site",
        "geographicCertainty": "unknown"
      },
      "geometry": {
        "type": "Point",
        "coordinates": [
          6100,
          3800
        ]
      }
    },
    {
      "type": "Feature",
      "id": "cipher-of-damnation-oronok-cipher-fragment-focus",
      "properties": {
        "name": "A fragment of the Cipher of Damnation editorial focus",
        "contentStatus": "research",
        "styleRole": "site",
        "geographicCertainty": "unknown"
      },
      "geometry": {
        "type": "Point",
        "coordinates": [
          3900,
          4400
        ]
      }
    },
    {
      "type": "Feature",
      "id": "cipher-of-damnation-oronok-gromtor-torn-heart-focus",
      "properties": {
        "name": "Grom’tor Torn-heart editorial focus",
        "contentStatus": "research",
        "styleRole": "site",
        "geographicCertainty": "unknown"
      },
      "geometry": {
        "type": "Point",
        "coordinates": [
          5000,
          4400
        ]
      }
    },
    {
      "type": "Feature",
      "id": "cipher-of-damnation-oronok-coilskar-commander-focus",
      "properties": {
        "name": "Coilskar naga commander editorial focus",
        "contentStatus": "research",
        "styleRole": "site",
        "geographicCertainty": "unknown"
      },
      "geometry": {
        "type": "Point",
        "coordinates": [
          6100,
          4400
        ]
      }
    },
    {
      "type": "Feature",
      "id": "cipher-of-damnation-oronok-artor-torn-heart-focus",
      "properties": {
        "name": "Ar’tor Torn-heart editorial focus",
        "contentStatus": "research",
        "styleRole": "site",
        "geographicCertainty": "unknown"
      },
      "geometry": {
        "type": "Point",
        "coordinates": [
          3900,
          5000
        ]
      }
    },
    {
      "type": "Feature",
      "id": "cipher-of-damnation-oronok-painmistress-gabrissa-focus",
      "properties": {
        "name": "Painmistress Gabrissa editorial focus",
        "contentStatus": "research",
        "styleRole": "site",
        "geographicCertainty": "unknown"
      },
      "geometry": {
        "type": "Point",
        "coordinates": [
          5000,
          5000
        ]
      }
    },
    {
      "type": "Feature",
      "id": "cipher-of-damnation-oronok-artor-spirit-focus",
      "properties": {
        "name": "The spirit of Ar’tor editorial focus",
        "contentStatus": "research",
        "styleRole": "site",
        "geographicCertainty": "unknown"
      },
      "geometry": {
        "type": "Point",
        "coordinates": [
          6100,
          5000
        ]
      }
    },
    {
      "type": "Feature",
      "id": "cipher-of-damnation-oronok-lohngoron-bow-focus",
      "properties": {
        "name": "Lohn’goron, Bow of the Torn-heart editorial focus",
        "contentStatus": "research",
        "styleRole": "site",
        "geographicCertainty": "unknown"
      },
      "geometry": {
        "type": "Point",
        "coordinates": [
          3900,
          5600
        ]
      }
    },
    {
      "type": "Feature",
      "id": "cipher-of-damnation-oronok-veneratus-the-many-focus",
      "properties": {
        "name": "Veneratus the Many editorial focus",
        "contentStatus": "research",
        "styleRole": "site",
        "geographicCertainty": "unknown"
      },
      "geometry": {
        "type": "Point",
        "coordinates": [
          5000,
          5600
        ]
      }
    },
    {
      "type": "Feature",
      "id": "cipher-of-damnation-oronok-borak-torn-heart-focus",
      "properties": {
        "name": "Borak Torn-heart editorial focus",
        "contentStatus": "research",
        "styleRole": "site",
        "geographicCertainty": "unknown"
      },
      "geometry": {
        "type": "Point",
        "coordinates": [
          6100,
          5600
        ]
      }
    },
    {
      "type": "Feature",
      "id": "cipher-of-damnation-oronok-envoy-icarius-focus",
      "properties": {
        "name": "Envoy Icarius editorial focus",
        "contentStatus": "research",
        "styleRole": "site",
        "geographicCertainty": "unknown"
      },
      "geometry": {
        "type": "Point",
        "coordinates": [
          3900,
          6200
        ]
      }
    },
    {
      "type": "Feature",
      "id": "cipher-of-damnation-oronok-blood-lord-zarath-focus",
      "properties": {
        "name": "Blood Lord Zarath editorial focus",
        "contentStatus": "research",
        "styleRole": "site",
        "geographicCertainty": "unknown"
      },
      "geometry": {
        "type": "Point",
        "coordinates": [
          5000,
          6200
        ]
      }
    },
    {
      "type": "Feature",
      "id": "cipher-of-damnation-oronok-tobias-filth-gorger-focus",
      "properties": {
        "name": "Tobias the Filth Gorger editorial focus",
        "contentStatus": "research",
        "styleRole": "site",
        "geographicCertainty": "unknown"
      },
      "geometry": {
        "type": "Point",
        "coordinates": [
          6100,
          6200
        ]
      }
    },
    {
      "type": "Feature",
      "id": "cipher-of-damnation-oronok-rotten-arakkoa-egg-focus",
      "properties": {
        "name": "Rotten Arakkoa egg editorial focus",
        "contentStatus": "research",
        "styleRole": "site",
        "geographicCertainty": "unknown"
      },
      "geometry": {
        "type": "Point",
        "coordinates": [
          3900,
          6800
        ]
      }
    },
    {
      "type": "Feature",
      "id": "cipher-of-damnation-oronok-bloodthistle-bundle-focus",
      "properties": {
        "name": "Bloodthistle bundle editorial focus",
        "contentStatus": "research",
        "styleRole": "site",
        "geographicCertainty": "unknown"
      },
      "geometry": {
        "type": "Point",
        "coordinates": [
          5000,
          6800
        ]
      }
    },
    {
      "type": "Feature",
      "id": "cipher-of-damnation-oronok-stormrage-missive-focus",
      "properties": {
        "name": "Stormrage missive editorial focus",
        "contentStatus": "research",
        "styleRole": "site",
        "geographicCertainty": "unknown"
      },
      "geometry": {
        "type": "Point",
        "coordinates": [
          6100,
          6800
        ]
      }
    },
    {
      "type": "Feature",
      "id": "cipher-of-damnation-oronok-eclipsion-disguise-focus",
      "properties": {
        "name": "Eclipsion blood elf disguise editorial focus",
        "contentStatus": "research",
        "styleRole": "site",
        "geographicCertainty": "unknown"
      },
      "geometry": {
        "type": "Point",
        "coordinates": [
          3900,
          7400
        ]
      }
    },
    {
      "type": "Feature",
      "id": "cipher-of-damnation-oronok-grand-commander-ruusk-focus",
      "properties": {
        "name": "Grand Commander Ruusk editorial focus",
        "contentStatus": "research",
        "styleRole": "site",
        "geographicCertainty": "unknown"
      },
      "geometry": {
        "type": "Point",
        "coordinates": [
          5000,
          7400
        ]
      }
    },
    {
      "type": "Feature",
      "id": "cipher-of-damnation-oronok-ruul-the-darkener-focus",
      "properties": {
        "name": "Ruul the Darkener editorial focus",
        "contentStatus": "research",
        "styleRole": "site",
        "geographicCertainty": "unknown"
      },
      "geometry": {
        "type": "Point",
        "coordinates": [
          6100,
          7400
        ]
      }
    },
    {
      "type": "Feature",
      "id": "cipher-of-damnation-oronok-cipher-reassembled-focus",
      "properties": {
        "name": "The reassembled Cipher of Damnation editorial focus",
        "contentStatus": "research",
        "styleRole": "site",
        "geographicCertainty": "unknown"
      },
      "geometry": {
        "type": "Point",
        "coordinates": [
          3900,
          8000
        ]
      }
    },
    {
      "type": "Feature",
      "id": "cipher-of-damnation-oronok-guldan-memory-focus",
      "properties": {
        "name": "Gul’dan’s remembered image editorial focus",
        "contentStatus": "research",
        "styleRole": "site",
        "geographicCertainty": "unknown"
      },
      "geometry": {
        "type": "Point",
        "coordinates": [
          5000,
          8000
        ]
      }
    },
    {
      "type": "Feature",
      "id": "cipher-of-damnation-oronok-cyrukh-the-firelord-focus",
      "properties": {
        "name": "Cyrukh the Firelord editorial focus",
        "contentStatus": "research",
        "styleRole": "site",
        "geographicCertainty": "unknown"
      },
      "geometry": {
        "type": "Point",
        "coordinates": [
          6100,
          8000
        ]
      }
    },
    {
      "type": "Feature",
      "id": "cipher-of-damnation-oronok-redeemed-elemental-spirits-focus",
      "properties": {
        "name": "The four redeemed elemental spirits editorial focus",
        "contentStatus": "research",
        "styleRole": "site",
        "geographicCertainty": "unknown"
      },
      "geometry": {
        "type": "Point",
        "coordinates": [
          3900,
          8600
        ]
      }
    }
  ]
}
