{
  "type": "FeatureCollection",
  "features": [
    {
      "type": "Feature",
      "id": "consortium-and-arcatraz-nether-stalker-khayji-focus",
      "properties": {
        "name": "Nether-Stalker Khay’ji editorial focus",
        "contentStatus": "research",
        "styleRole": "site",
        "geographicCertainty": "unknown"
      },
      "geometry": {
        "type": "Point",
        "coordinates": [
          2800,
          5400
        ]
      }
    },
    {
      "type": "Feature",
      "id": "consortium-and-arcatraz-warp-raider-nesaad-focus",
      "properties": {
        "name": "Warp-Raider Nesaad editorial focus",
        "contentStatus": "research",
        "styleRole": "site",
        "geographicCertainty": "unknown"
      },
      "geometry": {
        "type": "Point",
        "coordinates": [
          5000,
          5400
        ]
      }
    },
    {
      "type": "Feature",
      "id": "consortium-and-arcatraz-consortium-agent-gahruj-focus",
      "properties": {
        "name": "Gahruj editorial focus",
        "contentStatus": "research",
        "styleRole": "site",
        "geographicCertainty": "unknown"
      },
      "geometry": {
        "type": "Point",
        "coordinates": [
          5000,
          5400
        ]
      }
    },
    {
      "type": "Feature",
      "id": "consortium-and-arcatraz-nexus-prince-haramad-focus",
      "properties": {
        "name": "Nexus-Prince Haramad editorial focus",
        "contentStatus": "research",
        "styleRole": "site",
        "geographicCertainty": "unknown"
      },
      "geometry": {
        "type": "Point",
        "coordinates": [
          2800,
          5400
        ]
      }
    },
    {
      "type": "Feature",
      "id": "consortium-and-arcatraz-culuthas-focus",
      "properties": {
        "name": "Culuthas editorial focus",
        "contentStatus": "research",
        "styleRole": "site",
        "geographicCertainty": "unknown"
      },
      "geometry": {
        "type": "Point",
        "coordinates": [
          5000,
          5400
        ]
      }
    },
    {
      "type": "Feature",
      "id": "consortium-and-arcatraz-ata-mal-crystal-focus",
      "properties": {
        "name": "Ata’mal Crystal — Spirit’s Song editorial focus",
        "contentStatus": "research",
        "styleRole": "site",
        "geographicCertainty": "unknown"
      },
      "geometry": {
        "type": "Point",
        "coordinates": [
          7200,
          5400
        ]
      }
    },
    {
      "type": "Feature",
      "id": "consortium-and-arcatraz-adal-focus",
      "properties": {
        "name": "A’dal editorial focus",
        "contentStatus": "research",
        "styleRole": "site",
        "geographicCertainty": "unknown"
      },
      "geometry": {
        "type": "Point",
        "coordinates": [
          5000,
          5400
        ]
      }
    },
    {
      "type": "Feature",
      "id": "consortium-and-arcatraz-pathaleon-the-calculator-focus",
      "properties": {
        "name": "Pathaleon the Calculator editorial focus",
        "contentStatus": "research",
        "styleRole": "site",
        "geographicCertainty": "unknown"
      },
      "geometry": {
        "type": "Point",
        "coordinates": [
          2800,
          5400
        ]
      }
    },
    {
      "type": "Feature",
      "id": "consortium-and-arcatraz-key-to-the-arcatraz-focus",
      "properties": {
        "name": "Key to the Arcatraz editorial focus",
        "contentStatus": "research",
        "styleRole": "site",
        "geographicCertainty": "unknown"
      },
      "geometry": {
        "type": "Point",
        "coordinates": [
          7200,
          5400
        ]
      }
    },
    {
      "type": "Feature",
      "id": "consortium-and-arcatraz-warp-splinter-focus",
      "properties": {
        "name": "Warp Splinter editorial focus",
        "contentStatus": "research",
        "styleRole": "site",
        "geographicCertainty": "unknown"
      },
      "geometry": {
        "type": "Point",
        "coordinates": [
          2800,
          5400
        ]
      }
    },
    {
      "type": "Feature",
      "id": "consortium-and-arcatraz-harbinger-skyriss-focus",
      "properties": {
        "name": "Harbinger Skyriss editorial focus",
        "contentStatus": "research",
        "styleRole": "site",
        "geographicCertainty": "unknown"
      },
      "geometry": {
        "type": "Point",
        "coordinates": [
          2800,
          5400
        ]
      }
    }
  ]
}
