{
  "type": "FeatureCollection",
  "features": [
    {
      "type": "Feature",
      "id": "darrowshire-lost-and-remembered-darrowshire-lost-and-remembered-scourge-focus",
      "properties": {
        "name": "Scourge attackers editorial focus",
        "contentStatus": "research",
        "styleRole": "site",
        "geographicCertainty": "unknown"
      },
      "geometry": {
        "type": "Point",
        "coordinates": [
          4500,
          4700
        ]
      }
    },
    {
      "type": "Feature",
      "id": "darrowshire-lost-and-remembered-darrowshire-lost-and-remembered-joseph-focus",
      "properties": {
        "name": "Captain Joseph Redpath editorial focus",
        "contentStatus": "research",
        "styleRole": "site",
        "geographicCertainty": "unknown"
      },
      "geometry": {
        "type": "Point",
        "coordinates": [
          5500,
          4700
        ]
      }
    },
    {
      "type": "Feature",
      "id": "darrowshire-lost-and-remembered-darrowshire-lost-and-remembered-davil-focus",
      "properties": {
        "name": "Davil Lightfire / Davil Crokford editorial focus",
        "contentStatus": "research",
        "styleRole": "site",
        "geographicCertainty": "unknown"
      },
      "geometry": {
        "type": "Point",
        "coordinates": [
          4500,
          5500
        ]
      }
    },
    {
      "type": "Feature",
      "id": "darrowshire-lost-and-remembered-darrowshire-lost-and-remembered-annals-focus",
      "properties": {
        "name": "The Annals of Darrowshire editorial focus",
        "contentStatus": "research",
        "styleRole": "site",
        "geographicCertainty": "unknown"
      },
      "geometry": {
        "type": "Point",
        "coordinates": [
          5500,
          5500
        ]
      }
    },
    {
      "type": "Feature",
      "id": "darrowshire-lost-and-remembered-darrowshire-lost-and-remembered-horgus-focus",
      "properties": {
        "name": "Horgus the Ravager editorial focus",
        "contentStatus": "research",
        "styleRole": "site",
        "geographicCertainty": "unknown"
      },
      "geometry": {
        "type": "Point",
        "coordinates": [
          5500,
          5500
        ]
      }
    },
    {
      "type": "Feature",
      "id": "darrowshire-lost-and-remembered-darrowshire-lost-and-remembered-libram-focus",
      "properties": {
        "name": "Davil Lightfire’s Libram editorial focus",
        "contentStatus": "research",
        "styleRole": "site",
        "geographicCertainty": "unknown"
      },
      "geometry": {
        "type": "Point",
        "coordinates": [
          4500,
          4700
        ]
      }
    },
    {
      "type": "Feature",
      "id": "darrowshire-lost-and-remembered-darrowshire-lost-and-remembered-marduk-focus",
      "properties": {
        "name": "Marduk the Black / Marduk Blackpool editorial focus",
        "contentStatus": "research",
        "styleRole": "site",
        "geographicCertainty": "unknown"
      },
      "geometry": {
        "type": "Point",
        "coordinates": [
          4500,
          5500
        ]
      }
    },
    {
      "type": "Feature",
      "id": "darrowshire-lost-and-remembered-darrowshire-lost-and-remembered-corrupted-joseph-focus",
      "properties": {
        "name": "Redpath the Corrupted editorial focus",
        "contentStatus": "research",
        "styleRole": "site",
        "geographicCertainty": "unknown"
      },
      "geometry": {
        "type": "Point",
        "coordinates": [
          5500,
          5500
        ]
      }
    },
    {
      "type": "Feature",
      "id": "darrowshire-lost-and-remembered-darrowshire-lost-and-remembered-marlene-focus",
      "properties": {
        "name": "Auntie Marlene Redpath editorial focus",
        "contentStatus": "research",
        "styleRole": "site",
        "geographicCertainty": "unknown"
      },
      "geometry": {
        "type": "Point",
        "coordinates": [
          4500,
          4700
        ]
      }
    },
    {
      "type": "Feature",
      "id": "darrowshire-lost-and-remembered-darrowshire-lost-and-remembered-pamela-focus",
      "properties": {
        "name": "Pamela Redpath editorial focus",
        "contentStatus": "research",
        "styleRole": "site",
        "geographicCertainty": "unknown"
      },
      "geometry": {
        "type": "Point",
        "coordinates": [
          4500,
          6300
        ]
      }
    },
    {
      "type": "Feature",
      "id": "darrowshire-lost-and-remembered-darrowshire-lost-and-remembered-doll-focus",
      "properties": {
        "name": "Pamela’s Doll editorial focus",
        "contentStatus": "research",
        "styleRole": "site",
        "geographicCertainty": "unknown"
      },
      "geometry": {
        "type": "Point",
        "coordinates": [
          4500,
          5500
        ]
      }
    },
    {
      "type": "Feature",
      "id": "darrowshire-lost-and-remembered-darrowshire-lost-and-remembered-chromie-focus",
      "properties": {
        "name": "Chromie editorial focus",
        "contentStatus": "research",
        "styleRole": "site",
        "geographicCertainty": "unknown"
      },
      "geometry": {
        "type": "Point",
        "coordinates": [
          5500,
          4700
        ]
      }
    },
    {
      "type": "Feature",
      "id": "darrowshire-lost-and-remembered-darrowshire-lost-and-remembered-ring-focus",
      "properties": {
        "name": "Joseph’s wedding ring editorial focus",
        "contentStatus": "research",
        "styleRole": "site",
        "geographicCertainty": "unknown"
      },
      "geometry": {
        "type": "Point",
        "coordinates": [
          4500,
          4700
        ]
      }
    },
    {
      "type": "Feature",
      "id": "darrowshire-lost-and-remembered-darrowshire-lost-and-remembered-carlin-focus",
      "properties": {
        "name": "Uncle Carlin Redpath editorial focus",
        "contentStatus": "research",
        "styleRole": "site",
        "geographicCertainty": "unknown"
      },
      "geometry": {
        "type": "Point",
        "coordinates": [
          4500,
          4700
        ]
      }
    },
    {
      "type": "Feature",
      "id": "darrowshire-lost-and-remembered-darrowshire-lost-and-remembered-defenders-focus",
      "properties": {
        "name": "The Defenders of Darrowshire editorial focus",
        "contentStatus": "research",
        "styleRole": "site",
        "geographicCertainty": "unknown"
      },
      "geometry": {
        "type": "Point",
        "coordinates": [
          4500,
          6300
        ]
      }
    },
    {
      "type": "Feature",
      "id": "darrowshire-lost-and-remembered-darrowshire-lost-and-remembered-horgus-skull-focus",
      "properties": {
        "name": "Skull attributed to Horgus editorial focus",
        "contentStatus": "research",
        "styleRole": "site",
        "geographicCertainty": "unknown"
      },
      "geometry": {
        "type": "Point",
        "coordinates": [
          4500,
          4700
        ]
      }
    },
    {
      "type": "Feature",
      "id": "darrowshire-lost-and-remembered-darrowshire-lost-and-remembered-marduk-sword-focus",
      "properties": {
        "name": "Shattered sword attributed to Marduk editorial focus",
        "contentStatus": "research",
        "styleRole": "site",
        "geographicCertainty": "unknown"
      },
      "geometry": {
        "type": "Point",
        "coordinates": [
          5500,
          4700
        ]
      }
    },
    {
      "type": "Feature",
      "id": "darrowshire-lost-and-remembered-darrowshire-lost-and-remembered-shield-focus",
      "properties": {
        "name": "Joseph Redpath’s broken shield editorial focus",
        "contentStatus": "research",
        "styleRole": "site",
        "geographicCertainty": "unknown"
      },
      "geometry": {
        "type": "Point",
        "coordinates": [
          4500,
          4700
        ]
      }
    },
    {
      "type": "Feature",
      "id": "darrowshire-lost-and-remembered-darrowshire-lost-and-remembered-relic-bundle-focus",
      "properties": {
        "name": "Bundle of relics and mystic crystal editorial focus",
        "contentStatus": "research",
        "styleRole": "site",
        "geographicCertainty": "unknown"
      },
      "geometry": {
        "type": "Point",
        "coordinates": [
          5500,
          6300
        ]
      }
    },
    {
      "type": "Feature",
      "id": "darrowshire-lost-and-remembered-darrowshire-lost-and-remembered-extended-annals-focus",
      "properties": {
        "name": "Extended Annals of Darrowshire editorial focus",
        "contentStatus": "research",
        "styleRole": "site",
        "geographicCertainty": "unknown"
      },
      "geometry": {
        "type": "Point",
        "coordinates": [
          5500,
          4700
        ]
      }
    }
  ]
}
