{
  "type": "FeatureCollection",
  "features": [
    {
      "type": "Feature",
      "id": "defias-original-conspiracy-gryan-stoutmantle-focus",
      "properties": {
        "name": "Gryan Stoutmantle editorial focus",
        "contentStatus": "research",
        "styleRole": "site",
        "geographicCertainty": "unknown"
      },
      "geometry": {
        "type": "Point",
        "coordinates": [
          3900,
          4100
        ]
      }
    },
    {
      "type": "Feature",
      "id": "defias-original-conspiracy-westfall-peoples-militia-focus",
      "properties": {
        "name": "The People’s Militia of Westfall editorial focus",
        "contentStatus": "research",
        "styleRole": "site",
        "geographicCertainty": "unknown"
      },
      "geometry": {
        "type": "Point",
        "coordinates": [
          5000,
          4100
        ]
      }
    },
    {
      "type": "Feature",
      "id": "defias-original-conspiracy-defias-brotherhood-focus",
      "properties": {
        "name": "The Defias Brotherhood editorial focus",
        "contentStatus": "research",
        "styleRole": "site",
        "geographicCertainty": "unknown"
      },
      "geometry": {
        "type": "Point",
        "coordinates": [
          6100,
          4100
        ]
      }
    },
    {
      "type": "Feature",
      "id": "defias-original-conspiracy-wiley-the-black-focus",
      "properties": {
        "name": "Wiley the Black editorial focus",
        "contentStatus": "research",
        "styleRole": "site",
        "geographicCertainty": "unknown"
      },
      "geometry": {
        "type": "Point",
        "coordinates": [
          3900,
          5000
        ]
      }
    },
    {
      "type": "Feature",
      "id": "defias-original-conspiracy-mathias-shaw-focus",
      "properties": {
        "name": "Mathias Shaw editorial focus",
        "contentStatus": "research",
        "styleRole": "site",
        "geographicCertainty": "unknown"
      },
      "geometry": {
        "type": "Point",
        "coordinates": [
          5000,
          5000
        ]
      }
    },
    {
      "type": "Feature",
      "id": "defias-original-conspiracy-stormwind-stonemasons-focus",
      "properties": {
        "name": "The Stonemasons editorial focus",
        "contentStatus": "research",
        "styleRole": "site",
        "geographicCertainty": "unknown"
      },
      "geometry": {
        "type": "Point",
        "coordinates": [
          6100,
          5000
        ]
      }
    },
    {
      "type": "Feature",
      "id": "defias-original-conspiracy-edwin-vancleef-focus",
      "properties": {
        "name": "Edwin VanCleef editorial focus",
        "contentStatus": "research",
        "styleRole": "site",
        "geographicCertainty": "unknown"
      },
      "geometry": {
        "type": "Point",
        "coordinates": [
          3900,
          5900
        ]
      }
    },
    {
      "type": "Feature",
      "id": "defias-original-conspiracy-baros-alexston-focus",
      "properties": {
        "name": "Baros Alexston editorial focus",
        "contentStatus": "research",
        "styleRole": "site",
        "geographicCertainty": "unknown"
      },
      "geometry": {
        "type": "Point",
        "coordinates": [
          5000,
          5900
        ]
      }
    },
    {
      "type": "Feature",
      "id": "defias-original-conspiracy-unsent-letter-focus",
      "properties": {
        "name": "The Unsent Letter editorial focus",
        "contentStatus": "research",
        "styleRole": "site",
        "geographicCertainty": "unknown"
      },
      "geometry": {
        "type": "Point",
        "coordinates": [
          6100,
          5900
        ]
      }
    },
    {
      "type": "Feature",
      "id": "defias-original-conspiracy-bazil-thredd-focus",
      "properties": {
        "name": "Bazil Thredd editorial focus",
        "contentStatus": "research",
        "styleRole": "site",
        "geographicCertainty": "unknown"
      },
      "geometry": {
        "type": "Point",
        "coordinates": [
          3900,
          6800
        ]
      }
    },
    {
      "type": "Feature",
      "id": "defias-original-conspiracy-warden-thelwater-focus",
      "properties": {
        "name": "Warden Thelwater editorial focus",
        "contentStatus": "research",
        "styleRole": "site",
        "geographicCertainty": "unknown"
      },
      "geometry": {
        "type": "Point",
        "coordinates": [
          5000,
          6800
        ]
      }
    },
    {
      "type": "Feature",
      "id": "defias-original-conspiracy-marzon-focus",
      "properties": {
        "name": "Marzon editorial focus",
        "contentStatus": "research",
        "styleRole": "site",
        "geographicCertainty": "unknown"
      },
      "geometry": {
        "type": "Point",
        "coordinates": [
          6100,
          6800
        ]
      }
    },
    {
      "type": "Feature",
      "id": "defias-original-conspiracy-lord-gregor-lescovar-focus",
      "properties": {
        "name": "Lord Gregor Lescovar editorial focus",
        "contentStatus": "research",
        "styleRole": "site",
        "geographicCertainty": "unknown"
      },
      "geometry": {
        "type": "Point",
        "coordinates": [
          3900,
          7700
        ]
      }
    },
    {
      "type": "Feature",
      "id": "defias-original-conspiracy-elling-trias-focus",
      "properties": {
        "name": "Elling Trias editorial focus",
        "contentStatus": "research",
        "styleRole": "site",
        "geographicCertainty": "unknown"
      },
      "geometry": {
        "type": "Point",
        "coordinates": [
          5000,
          7700
        ]
      }
    },
    {
      "type": "Feature",
      "id": "defias-original-conspiracy-defias-tyrion-focus",
      "properties": {
        "name": "Tyrion editorial focus",
        "contentStatus": "research",
        "styleRole": "site",
        "geographicCertainty": "unknown"
      },
      "geometry": {
        "type": "Point",
        "coordinates": [
          6100,
          7700
        ]
      }
    },
    {
      "type": "Feature",
      "id": "defias-original-conspiracy-katrana-prestor-focus",
      "properties": {
        "name": "Katrana Prestor editorial focus",
        "contentStatus": "research",
        "styleRole": "site",
        "geographicCertainty": "unknown"
      },
      "geometry": {
        "type": "Point",
        "coordinates": [
          3900,
          8600
        ]
      }
    }
  ]
}
