{
  "type": "FeatureCollection",
  "features": [
    {
      "type": "Feature",
      "id": "drakuru-betrayal-drakuru-focus",
      "properties": {
        "name": "drakuru editorial cast focus",
        "contentStatus": "research",
        "styleRole": "site",
        "geographicCertainty": "unknown"
      },
      "geometry": {
        "type": "Point",
        "coordinates": [
          3200,
          5200
        ]
      }
    },
    {
      "type": "Feature",
      "id": "drakuru-betrayal-warlord-zimbo-focus",
      "properties": {
        "name": "warlord-zimbo editorial cast focus",
        "contentStatus": "research",
        "styleRole": "site",
        "geographicCertainty": "unknown"
      },
      "geometry": {
        "type": "Point",
        "coordinates": [
          4400,
          5200
        ]
      }
    },
    {
      "type": "Feature",
      "id": "drakuru-betrayal-overlord-drakuru-focus",
      "properties": {
        "name": "overlord-drakuru editorial cast focus",
        "contentStatus": "research",
        "styleRole": "site",
        "geographicCertainty": "unknown"
      },
      "geometry": {
        "type": "Point",
        "coordinates": [
          5600,
          5200
        ]
      }
    },
    {
      "type": "Feature",
      "id": "drakuru-betrayal-stefan-vadu-focus",
      "properties": {
        "name": "stefan-vadu editorial cast focus",
        "contentStatus": "research",
        "styleRole": "site",
        "geographicCertainty": "unknown"
      },
      "geometry": {
        "type": "Point",
        "coordinates": [
          6800,
          5200
        ]
      }
    },
    {
      "type": "Feature",
      "id": "drakuru-betrayal-blightblood-trolls-focus",
      "properties": {
        "name": "blightblood-trolls editorial cast focus",
        "contentStatus": "research",
        "styleRole": "site",
        "geographicCertainty": "unknown"
      },
      "geometry": {
        "type": "Point",
        "coordinates": [
          3200,
          6200
        ]
      }
    },
    {
      "type": "Feature",
      "id": "drakuru-betrayal-eye-of-the-prophets-focus",
      "properties": {
        "name": "eye-of-the-prophets editorial cast focus",
        "contentStatus": "research",
        "styleRole": "site",
        "geographicCertainty": "unknown"
      },
      "geometry": {
        "type": "Point",
        "coordinates": [
          4400,
          6200
        ]
      }
    },
    {
      "type": "Feature",
      "id": "drakuru-betrayal-heart-of-the-ancients-focus",
      "properties": {
        "name": "heart-of-the-ancients editorial cast focus",
        "contentStatus": "research",
        "styleRole": "site",
        "geographicCertainty": "unknown"
      },
      "geometry": {
        "type": "Point",
        "coordinates": [
          5600,
          6200
        ]
      }
    },
    {
      "type": "Feature",
      "id": "drakuru-betrayal-scepter-of-domination-focus",
      "properties": {
        "name": "scepter-of-domination editorial cast focus",
        "contentStatus": "research",
        "styleRole": "site",
        "geographicCertainty": "unknown"
      },
      "geometry": {
        "type": "Point",
        "coordinates": [
          6800,
          6200
        ]
      }
    },
    {
      "type": "Feature",
      "id": "drakuru-betrayal-arthas-as-the-lich-king-focus",
      "properties": {
        "name": "arthas-as-the-lich-king editorial cast focus",
        "contentStatus": "research",
        "styleRole": "site",
        "geographicCertainty": "unknown"
      },
      "geometry": {
        "type": "Point",
        "coordinates": [
          3200,
          7200
        ]
      }
    }
  ]
}
