{
  "type": "FeatureCollection",
  "features": [
    {
      "type": "Feature",
      "id": "dungeon-set-two-deliana-focus",
      "properties": {
        "name": "Deliana editorial focus",
        "contentStatus": "research",
        "styleRole": "site",
        "geographicCertainty": "unknown"
      },
      "geometry": {
        "type": "Point",
        "coordinates": [
          3300,
          5500
        ]
      }
    },
    {
      "type": "Feature",
      "id": "dungeon-set-two-mokvar-focus",
      "properties": {
        "name": "Mokvar editorial focus",
        "contentStatus": "research",
        "styleRole": "site",
        "geographicCertainty": "unknown"
      },
      "geometry": {
        "type": "Point",
        "coordinates": [
          5000,
          5500
        ]
      }
    },
    {
      "type": "Feature",
      "id": "dungeon-set-two-anthion-harmon-focus",
      "properties": {
        "name": "Anthion Harmon editorial focus",
        "contentStatus": "research",
        "styleRole": "site",
        "geographicCertainty": "unknown"
      },
      "geometry": {
        "type": "Point",
        "coordinates": [
          3300,
          5500
        ]
      }
    },
    {
      "type": "Feature",
      "id": "dungeon-set-two-ysida-harmon-focus",
      "properties": {
        "name": "Ysida Harmon editorial focus",
        "contentStatus": "research",
        "styleRole": "site",
        "geographicCertainty": "unknown"
      },
      "geometry": {
        "type": "Point",
        "coordinates": [
          5000,
          5500
        ]
      }
    },
    {
      "type": "Feature",
      "id": "dungeon-set-two-valthalak-amulet-focus",
      "properties": {
        "name": "Lord Valthalak’s Amulet editorial focus",
        "contentStatus": "research",
        "styleRole": "site",
        "geographicCertainty": "unknown"
      },
      "geometry": {
        "type": "Point",
        "coordinates": [
          5000,
          5500
        ]
      }
    },
    {
      "type": "Feature",
      "id": "dungeon-set-two-falrin-treeshaper-focus",
      "properties": {
        "name": "Falrin Treeshaper editorial focus",
        "contentStatus": "research",
        "styleRole": "site",
        "geographicCertainty": "unknown"
      },
      "geometry": {
        "type": "Point",
        "coordinates": [
          3300,
          5500
        ]
      }
    },
    {
      "type": "Feature",
      "id": "dungeon-set-two-theldren-focus",
      "properties": {
        "name": "Theldren editorial focus",
        "contentStatus": "research",
        "styleRole": "site",
        "geographicCertainty": "unknown"
      },
      "geometry": {
        "type": "Point",
        "coordinates": [
          3300,
          5500
        ]
      }
    },
    {
      "type": "Feature",
      "id": "dungeon-set-two-bodley-focus",
      "properties": {
        "name": "Bodley editorial focus",
        "contentStatus": "research",
        "styleRole": "site",
        "geographicCertainty": "unknown"
      },
      "geometry": {
        "type": "Point",
        "coordinates": [
          3300,
          5500
        ]
      }
    },
    {
      "type": "Feature",
      "id": "dungeon-set-two-gremnik-rizzlesprang-focus",
      "properties": {
        "name": "Gremnik Rizzlesprang editorial focus",
        "contentStatus": "research",
        "styleRole": "site",
        "geographicCertainty": "unknown"
      },
      "geometry": {
        "type": "Point",
        "coordinates": [
          3300,
          5500
        ]
      }
    },
    {
      "type": "Feature",
      "id": "dungeon-set-two-veiled-blade-focus",
      "properties": {
        "name": "The Veiled Blade editorial focus",
        "contentStatus": "research",
        "styleRole": "site",
        "geographicCertainty": "unknown"
      },
      "geometry": {
        "type": "Point",
        "coordinates": [
          3300,
          5500
        ]
      }
    },
    {
      "type": "Feature",
      "id": "dungeon-set-two-lord-valthalak-focus",
      "properties": {
        "name": "Lord Valthalak editorial focus",
        "contentStatus": "research",
        "styleRole": "site",
        "geographicCertainty": "unknown"
      },
      "geometry": {
        "type": "Point",
        "coordinates": [
          6700,
          5500
        ]
      }
    },
    {
      "type": "Feature",
      "id": "dungeon-set-two-kormok-focus",
      "properties": {
        "name": "Kormok editorial focus",
        "contentStatus": "research",
        "styleRole": "site",
        "geographicCertainty": "unknown"
      },
      "geometry": {
        "type": "Point",
        "coordinates": [
          6700,
          5500
        ]
      }
    },
    {
      "type": "Feature",
      "id": "dungeon-set-two-spectral-assassins-focus",
      "properties": {
        "name": "Spectral Assassins editorial focus",
        "contentStatus": "research",
        "styleRole": "site",
        "geographicCertainty": "unknown"
      },
      "geometry": {
        "type": "Point",
        "coordinates": [
          5000,
          5500
        ]
      }
    },
    {
      "type": "Feature",
      "id": "dungeon-set-two-mor-grayhoof-focus",
      "properties": {
        "name": "Mor Grayhoof editorial focus",
        "contentStatus": "research",
        "styleRole": "site",
        "geographicCertainty": "unknown"
      },
      "geometry": {
        "type": "Point",
        "coordinates": [
          6700,
          5500
        ]
      }
    },
    {
      "type": "Feature",
      "id": "dungeon-set-two-isalien-focus",
      "properties": {
        "name": "Isalien editorial focus",
        "contentStatus": "research",
        "styleRole": "site",
        "geographicCertainty": "unknown"
      },
      "geometry": {
        "type": "Point",
        "coordinates": [
          3300,
          5500
        ]
      }
    },
    {
      "type": "Feature",
      "id": "dungeon-set-two-jarien-sothos-focus",
      "properties": {
        "name": "Jarien and Sothos editorial focus",
        "contentStatus": "research",
        "styleRole": "site",
        "geographicCertainty": "unknown"
      },
      "geometry": {
        "type": "Point",
        "coordinates": [
          3300,
          5500
        ]
      }
    }
  ]
}
