{
  "type": "FeatureCollection",
  "features": [
    {
      "type": "Feature",
      "id": "fallen-hero-and-rakhlikh-trebor-fallen-hero-focus",
      "properties": {
        "name": "Trebor the Fallen Hero editorial focus",
        "contentStatus": "research",
        "styleRole": "site",
        "geographicCertainty": "unknown"
      },
      "geometry": {
        "type": "Point",
        "coordinates": [
          3000,
          5400
        ]
      }
    },
    {
      "type": "Feature",
      "id": "fallen-hero-and-rakhlikh-bengor-focus",
      "properties": {
        "name": "Bengor editorial focus",
        "contentStatus": "research",
        "styleRole": "site",
        "geographicCertainty": "unknown"
      },
      "geometry": {
        "type": "Point",
        "coordinates": [
          3000,
          5400
        ]
      }
    },
    {
      "type": "Feature",
      "id": "fallen-hero-and-rakhlikh-warchief-orders-focus",
      "properties": {
        "name": "The missing Warchief’s orders editorial focus",
        "contentStatus": "research",
        "styleRole": "site",
        "geographicCertainty": "unknown"
      },
      "geometry": {
        "type": "Point",
        "coordinates": [
          4333.333333333333,
          5400
        ]
      }
    },
    {
      "type": "Feature",
      "id": "fallen-hero-and-rakhlikh-bound-soldiers-focus",
      "properties": {
        "name": "The bound soldiers editorial focus",
        "contentStatus": "research",
        "styleRole": "site",
        "geographicCertainty": "unknown"
      },
      "geometry": {
        "type": "Point",
        "coordinates": [
          4333.333333333333,
          5400
        ]
      }
    },
    {
      "type": "Feature",
      "id": "fallen-hero-and-rakhlikh-binding-stone-focus",
      "properties": {
        "name": "A binding stone editorial focus",
        "contentStatus": "research",
        "styleRole": "site",
        "geographicCertainty": "unknown"
      },
      "geometry": {
        "type": "Point",
        "coordinates": [
          5666.666666666666,
          5400
        ]
      }
    },
    {
      "type": "Feature",
      "id": "fallen-hero-and-rakhlikh-kirith-damned-focus",
      "properties": {
        "name": "Kirith the Damned editorial focus",
        "contentStatus": "research",
        "styleRole": "site",
        "geographicCertainty": "unknown"
      },
      "geometry": {
        "type": "Point",
        "coordinates": [
          3000,
          5400
        ]
      }
    },
    {
      "type": "Feature",
      "id": "fallen-hero-and-rakhlikh-kirith-spirit-focus",
      "properties": {
        "name": "The spirit of Kirith editorial focus",
        "contentStatus": "research",
        "styleRole": "site",
        "geographicCertainty": "unknown"
      },
      "geometry": {
        "type": "Point",
        "coordinates": [
          3000,
          5400
        ]
      }
    },
    {
      "type": "Feature",
      "id": "fallen-hero-and-rakhlikh-shattered-amulet-focus",
      "properties": {
        "name": "The shattered amulet editorial focus",
        "contentStatus": "research",
        "styleRole": "site",
        "geographicCertainty": "unknown"
      },
      "geometry": {
        "type": "Point",
        "coordinates": [
          4333.333333333333,
          5400
        ]
      }
    },
    {
      "type": "Feature",
      "id": "fallen-hero-and-rakhlikh-loramus-thalipedes-focus",
      "properties": {
        "name": "Loramus Thalipedes editorial focus",
        "contentStatus": "research",
        "styleRole": "site",
        "geographicCertainty": "unknown"
      },
      "geometry": {
        "type": "Point",
        "coordinates": [
          3000,
          5400
        ]
      }
    },
    {
      "type": "Feature",
      "id": "fallen-hero-and-rakhlikh-hetaera-focus",
      "properties": {
        "name": "Hetaera editorial focus",
        "contentStatus": "research",
        "styleRole": "site",
        "geographicCertainty": "unknown"
      },
      "geometry": {
        "type": "Point",
        "coordinates": [
          3000,
          5400
        ]
      }
    },
    {
      "type": "Feature",
      "id": "fallen-hero-and-rakhlikh-lord-arkkoroc-focus",
      "properties": {
        "name": "Lord Arkkoroc editorial focus",
        "contentStatus": "research",
        "styleRole": "site",
        "geographicCertainty": "unknown"
      },
      "geometry": {
        "type": "Point",
        "coordinates": [
          4333.333333333333,
          5400
        ]
      }
    },
    {
      "type": "Feature",
      "id": "fallen-hero-and-rakhlikh-felbane-weaponry-focus",
      "properties": {
        "name": "Felbane weaponry editorial focus",
        "contentStatus": "research",
        "styleRole": "site",
        "geographicCertainty": "unknown"
      },
      "geometry": {
        "type": "Point",
        "coordinates": [
          5666.666666666666,
          5400
        ]
      }
    },
    {
      "type": "Feature",
      "id": "fallen-hero-and-rakhlikh-galvan-ancient-focus",
      "properties": {
        "name": "Galvan the Ancient editorial focus",
        "contentStatus": "research",
        "styleRole": "site",
        "geographicCertainty": "unknown"
      },
      "geometry": {
        "type": "Point",
        "coordinates": [
          3000,
          5400
        ]
      }
    },
    {
      "type": "Feature",
      "id": "fallen-hero-and-rakhlikh-archmage-allistarj-focus",
      "properties": {
        "name": "Archmage Allistarj editorial focus",
        "contentStatus": "research",
        "styleRole": "site",
        "geographicCertainty": "unknown"
      },
      "geometry": {
        "type": "Point",
        "coordinates": [
          3000,
          5400
        ]
      }
    },
    {
      "type": "Feature",
      "id": "fallen-hero-and-rakhlikh-lady-sevine-focus",
      "properties": {
        "name": "Lady Sevine editorial focus",
        "contentStatus": "research",
        "styleRole": "site",
        "geographicCertainty": "unknown"
      },
      "geometry": {
        "type": "Point",
        "coordinates": [
          4333.333333333333,
          5400
        ]
      }
    },
    {
      "type": "Feature",
      "id": "fallen-hero-and-rakhlikh-grol-destroyer-focus",
      "properties": {
        "name": "Grol the Destroyer editorial focus",
        "contentStatus": "research",
        "styleRole": "site",
        "geographicCertainty": "unknown"
      },
      "geometry": {
        "type": "Point",
        "coordinates": [
          5666.666666666666,
          5400
        ]
      }
    },
    {
      "type": "Feature",
      "id": "fallen-hero-and-rakhlikh-completed-amulet-focus",
      "properties": {
        "name": "The united amulet editorial focus",
        "contentStatus": "research",
        "styleRole": "site",
        "geographicCertainty": "unknown"
      },
      "geometry": {
        "type": "Point",
        "coordinates": [
          7000,
          5400
        ]
      }
    },
    {
      "type": "Feature",
      "id": "fallen-hero-and-rakhlikh-razelikh-defiler-focus",
      "properties": {
        "name": "Razelikh the Defiler editorial focus",
        "contentStatus": "research",
        "styleRole": "site",
        "geographicCertainty": "unknown"
      },
      "geometry": {
        "type": "Point",
        "coordinates": [
          4333.333333333333,
          5400
        ]
      }
    },
    {
      "type": "Feature",
      "id": "fallen-hero-and-rakhlikh-severed-horn-focus",
      "properties": {
        "name": "Razelikh’s horn editorial focus",
        "contentStatus": "research",
        "styleRole": "site",
        "geographicCertainty": "unknown"
      },
      "geometry": {
        "type": "Point",
        "coordinates": [
          5666.666666666666,
          5400
        ]
      }
    },
    {
      "type": "Feature",
      "id": "fallen-hero-and-rakhlikh-ward-of-defiler-focus",
      "properties": {
        "name": "The Ward of the Defiler editorial focus",
        "contentStatus": "research",
        "styleRole": "site",
        "geographicCertainty": "unknown"
      },
      "geometry": {
        "type": "Point",
        "coordinates": [
          7000,
          5400
        ]
      }
    }
  ]
}
