{
  "type": "FeatureCollection",
  "name": "Hero of the Mag'har relational story theater",
  "features": [
    {
      "type": "Feature",
      "id": "hero-of-the-maghar-garrosh-hellscream-focus",
      "properties": {
        "name": "Garrosh Hellscream relational story focus",
        "contentStatus": "research",
        "styleRole": "site",
        "geographicCertainty": "unknown"
      },
      "geometry": {
        "type": "Point",
        "coordinates": [
          6300,
          5000
        ]
      }
    },
    {
      "type": "Feature",
      "id": "hero-of-the-maghar-maghar-community-focus",
      "properties": {
        "name": "The Mag'har of Garadar relational story focus",
        "contentStatus": "research",
        "styleRole": "site",
        "geographicCertainty": "unknown"
      },
      "geometry": {
        "type": "Point",
        "coordinates": [
          6279,
          5592
        ]
      }
    },
    {
      "type": "Feature",
      "id": "hero-of-the-maghar-geyah-focus",
      "properties": {
        "name": "Greatmother Geyah relational story focus",
        "contentStatus": "research",
        "styleRole": "site",
        "geographicCertainty": "unknown"
      },
      "geometry": {
        "type": "Point",
        "coordinates": [
          5723,
          6140
        ]
      }
    },
    {
      "type": "Feature",
      "id": "hero-of-the-maghar-mother-kashur-focus",
      "properties": {
        "name": "Mother Kashur relational story focus",
        "contentStatus": "research",
        "styleRole": "site",
        "geographicCertainty": "unknown"
      },
      "geometry": {
        "type": "Point",
        "coordinates": [
          4721,
          6397
        ]
      }
    },
    {
      "type": "Feature",
      "id": "hero-of-the-maghar-ancient-orc-ancestors-maghar-focus",
      "properties": {
        "name": "Ancient Orc Ancestors relational story focus",
        "contentStatus": "research",
        "styleRole": "site",
        "geographicCertainty": "unknown"
      },
      "geometry": {
        "type": "Point",
        "coordinates": [
          4149,
          5707
        ]
      }
    },
    {
      "type": "Feature",
      "id": "hero-of-the-maghar-kure-oshu-gun-focus",
      "properties": {
        "name": "K'ure relational story focus",
        "contentStatus": "research",
        "styleRole": "site",
        "geographicCertainty": "unknown"
      },
      "geometry": {
        "type": "Point",
        "coordinates": [
          3542,
          5308
        ]
      }
    },
    {
      "type": "Feature",
      "id": "hero-of-the-maghar-adal-focus",
      "properties": {
        "name": "A’dal relational story focus",
        "contentStatus": "research",
        "styleRole": "site",
        "geographicCertainty": "unknown"
      },
      "geometry": {
        "type": "Point",
        "coordinates": [
          3330,
          4647
        ]
      }
    },
    {
      "type": "Feature",
      "id": "hero-of-the-maghar-dore-auchenai-focus",
      "properties": {
        "name": "D'ore relational story focus",
        "contentStatus": "research",
        "styleRole": "site",
        "geographicCertainty": "unknown"
      },
      "geometry": {
        "type": "Point",
        "coordinates": [
          3716,
          3933
        ]
      }
    },
    {
      "type": "Feature",
      "id": "hero-of-the-maghar-thrall-focus",
      "properties": {
        "name": "Thrall relational story focus",
        "contentStatus": "research",
        "styleRole": "site",
        "geographicCertainty": "unknown"
      },
      "geometry": {
        "type": "Point",
        "coordinates": [
          4815,
          4074
        ]
      }
    },
    {
      "type": "Feature",
      "id": "hero-of-the-maghar-grom-hellscream-focus",
      "properties": {
        "name": "Grom Hellscream relational story focus",
        "contentStatus": "research",
        "styleRole": "site",
        "geographicCertainty": "unknown"
      },
      "geometry": {
        "type": "Point",
        "coordinates": [
          5631,
          4004
        ]
      }
    },
    {
      "type": "Feature",
      "id": "hero-of-the-maghar-mannoroth-focus",
      "properties": {
        "name": "Mannoroth relational story focus",
        "contentStatus": "research",
        "styleRole": "site",
        "geographicCertainty": "unknown"
      },
      "geometry": {
        "type": "Point",
        "coordinates": [
          6464,
          4323
        ]
      }
    }
  ]
}
