{
  "type": "FeatureCollection",
  "features": [
    {
      "type": "Feature",
      "id": "karazhan-masters-key-and-nightbane-archmage-alturus-focus",
      "properties": {
        "name": "Archmage Alturus editorial focus",
        "contentStatus": "research",
        "styleRole": "site",
        "geographicCertainty": "unknown"
      },
      "geometry": {
        "type": "Point",
        "coordinates": [
          3300,
          5500
        ]
      }
    },
    {
      "type": "Feature",
      "id": "karazhan-masters-key-and-nightbane-violet-eye-agents-focus",
      "properties": {
        "name": "Violet Eye journal investigators editorial focus",
        "contentStatus": "research",
        "styleRole": "site",
        "geographicCertainty": "unknown"
      },
      "geometry": {
        "type": "Point",
        "coordinates": [
          4150,
          5500
        ]
      }
    },
    {
      "type": "Feature",
      "id": "karazhan-masters-key-and-nightbane-archmage-cedric-focus",
      "properties": {
        "name": "Archmage Cedric editorial focus",
        "contentStatus": "research",
        "styleRole": "site",
        "geographicCertainty": "unknown"
      },
      "geometry": {
        "type": "Point",
        "coordinates": [
          4150,
          5500
        ]
      }
    },
    {
      "type": "Feature",
      "id": "karazhan-masters-key-and-nightbane-khadgar-focus",
      "properties": {
        "name": "Khadgar editorial focus",
        "contentStatus": "research",
        "styleRole": "site",
        "geographicCertainty": "unknown"
      },
      "geometry": {
        "type": "Point",
        "coordinates": [
          3300,
          5500
        ]
      }
    },
    {
      "type": "Feature",
      "id": "karazhan-masters-key-and-nightbane-medivh-focus",
      "properties": {
        "name": "Medivh editorial focus",
        "contentStatus": "research",
        "styleRole": "site",
        "geographicCertainty": "unknown"
      },
      "geometry": {
        "type": "Point",
        "coordinates": [
          4150,
          5500
        ]
      }
    },
    {
      "type": "Feature",
      "id": "karazhan-masters-key-and-nightbane-wravien-focus",
      "properties": {
        "name": "Wravien editorial focus",
        "contentStatus": "research",
        "styleRole": "site",
        "geographicCertainty": "unknown"
      },
      "geometry": {
        "type": "Point",
        "coordinates": [
          3300,
          5500
        ]
      }
    },
    {
      "type": "Feature",
      "id": "karazhan-masters-key-and-nightbane-gradav-focus",
      "properties": {
        "name": "Gradav editorial focus",
        "contentStatus": "research",
        "styleRole": "site",
        "geographicCertainty": "unknown"
      },
      "geometry": {
        "type": "Point",
        "coordinates": [
          5000,
          5500
        ]
      }
    },
    {
      "type": "Feature",
      "id": "karazhan-masters-key-and-nightbane-kamsis-focus",
      "properties": {
        "name": "Kamsis editorial focus",
        "contentStatus": "research",
        "styleRole": "site",
        "geographicCertainty": "unknown"
      },
      "geometry": {
        "type": "Point",
        "coordinates": [
          5850,
          5500
        ]
      }
    },
    {
      "type": "Feature",
      "id": "karazhan-masters-key-and-nightbane-shade-of-aran-focus",
      "properties": {
        "name": "Shade of Aran editorial focus",
        "contentStatus": "research",
        "styleRole": "site",
        "geographicCertainty": "unknown"
      },
      "geometry": {
        "type": "Point",
        "coordinates": [
          3300,
          5500
        ]
      }
    },
    {
      "type": "Feature",
      "id": "karazhan-masters-key-and-nightbane-arcanagos-focus",
      "properties": {
        "name": "Arcanagos editorial focus",
        "contentStatus": "research",
        "styleRole": "site",
        "geographicCertainty": "unknown"
      },
      "geometry": {
        "type": "Point",
        "coordinates": [
          3300,
          5500
        ]
      }
    },
    {
      "type": "Feature",
      "id": "karazhan-masters-key-and-nightbane-kalynna-lathred-focus",
      "properties": {
        "name": "Kalynna Lathred editorial focus",
        "contentStatus": "research",
        "styleRole": "site",
        "geographicCertainty": "unknown"
      },
      "geometry": {
        "type": "Point",
        "coordinates": [
          4150,
          5500
        ]
      }
    },
    {
      "type": "Feature",
      "id": "karazhan-masters-key-and-nightbane-nightbane-focus",
      "properties": {
        "name": "Nightbane editorial focus",
        "contentStatus": "research",
        "styleRole": "site",
        "geographicCertainty": "unknown"
      },
      "geometry": {
        "type": "Point",
        "coordinates": [
          5000,
          5500
        ]
      }
    },
    {
      "type": "Feature",
      "id": "karazhan-masters-key-and-nightbane-violet-scrying-crystal-focus",
      "properties": {
        "name": "Violet Scrying Crystal editorial focus",
        "contentStatus": "research",
        "styleRole": "site",
        "geographicCertainty": "unknown"
      },
      "geometry": {
        "type": "Point",
        "coordinates": [
          4150,
          5500
        ]
      }
    },
    {
      "type": "Feature",
      "id": "karazhan-masters-key-and-nightbane-masters-key-fragments-focus",
      "properties": {
        "name": "The Master’s Key fragments editorial focus",
        "contentStatus": "research",
        "styleRole": "site",
        "geographicCertainty": "unknown"
      },
      "geometry": {
        "type": "Point",
        "coordinates": [
          4150,
          5500
        ]
      }
    },
    {
      "type": "Feature",
      "id": "karazhan-masters-key-and-nightbane-masters-key-focus",
      "properties": {
        "name": "The Master’s Key editorial focus",
        "contentStatus": "research",
        "styleRole": "site",
        "geographicCertainty": "unknown"
      },
      "geometry": {
        "type": "Point",
        "coordinates": [
          5000,
          5500
        ]
      }
    },
    {
      "type": "Feature",
      "id": "karazhan-masters-key-and-nightbane-medivhs-journal-focus",
      "properties": {
        "name": "Medivh’s Journal editorial focus",
        "contentStatus": "research",
        "styleRole": "site",
        "geographicCertainty": "unknown"
      },
      "geometry": {
        "type": "Point",
        "coordinates": [
          6700,
          5500
        ]
      }
    },
    {
      "type": "Feature",
      "id": "karazhan-masters-key-and-nightbane-charred-bone-fragment-focus",
      "properties": {
        "name": "Charred Bone Fragment editorial focus",
        "contentStatus": "research",
        "styleRole": "site",
        "geographicCertainty": "unknown"
      },
      "geometry": {
        "type": "Point",
        "coordinates": [
          5850,
          5500
        ]
      }
    },
    {
      "type": "Feature",
      "id": "karazhan-masters-key-and-nightbane-blackened-urn-focus",
      "properties": {
        "name": "Blackened Urn editorial focus",
        "contentStatus": "research",
        "styleRole": "site",
        "geographicCertainty": "unknown"
      },
      "geometry": {
        "type": "Point",
        "coordinates": [
          6700,
          5500
        ]
      }
    }
  ]
}
