{
  "type": "FeatureCollection",
  "name": "missing-diplomat-original-investigation-theater",
  "features": [
    {
      "type": "Feature",
      "id": "missing-diplomat-original-investigation-archmage-tervosh-focus",
      "properties": {
        "name": "archmage-tervosh interpretive cast focus",
        "contentStatus": "research",
        "styleRole": "site",
        "geographicCertainty": "unknown"
      },
      "geometry": {
        "type": "Point",
        "coordinates": [
          3000,
          6100
        ]
      }
    },
    {
      "type": "Feature",
      "id": "missing-diplomat-original-investigation-bishop-delavey-focus",
      "properties": {
        "name": "bishop-delavey interpretive cast focus",
        "contentStatus": "research",
        "styleRole": "site",
        "geographicCertainty": "unknown"
      },
      "geometry": {
        "type": "Point",
        "coordinates": [
          4200,
          6100
        ]
      }
    },
    {
      "type": "Feature",
      "id": "missing-diplomat-original-investigation-bolvar-fordragon-focus",
      "properties": {
        "name": "bolvar-fordragon interpretive cast focus",
        "contentStatus": "research",
        "styleRole": "site",
        "geographicCertainty": "unknown"
      },
      "geometry": {
        "type": "Point",
        "coordinates": [
          5400,
          6100
        ]
      }
    },
    {
      "type": "Feature",
      "id": "missing-diplomat-original-investigation-captain-wymor-focus",
      "properties": {
        "name": "captain-wymor interpretive cast focus",
        "contentStatus": "research",
        "styleRole": "site",
        "geographicCertainty": "unknown"
      },
      "geometry": {
        "type": "Point",
        "coordinates": [
          6600,
          6100
        ]
      }
    },
    {
      "type": "Feature",
      "id": "missing-diplomat-original-investigation-cassa-crimsonwing-focus",
      "properties": {
        "name": "cassa-crimsonwing interpretive cast focus",
        "contentStatus": "research",
        "styleRole": "site",
        "geographicCertainty": "unknown"
      },
      "geometry": {
        "type": "Point",
        "coordinates": [
          7800,
          6100
        ]
      }
    },
    {
      "type": "Feature",
      "id": "missing-diplomat-original-investigation-commander-samaul-focus",
      "properties": {
        "name": "commander-samaul interpretive cast focus",
        "contentStatus": "research",
        "styleRole": "site",
        "geographicCertainty": "unknown"
      },
      "geometry": {
        "type": "Point",
        "coordinates": [
          3000,
          4600
        ]
      }
    },
    {
      "type": "Feature",
      "id": "missing-diplomat-original-investigation-dashel-stonefist-focus",
      "properties": {
        "name": "dashel-stonefist interpretive cast focus",
        "contentStatus": "research",
        "styleRole": "site",
        "geographicCertainty": "unknown"
      },
      "geometry": {
        "type": "Point",
        "coordinates": [
          4200,
          4600
        ]
      }
    },
    {
      "type": "Feature",
      "id": "missing-diplomat-original-investigation-defias-brotherhood-focus",
      "properties": {
        "name": "defias-brotherhood interpretive cast focus",
        "contentStatus": "research",
        "styleRole": "site",
        "geographicCertainty": "unknown"
      },
      "geometry": {
        "type": "Point",
        "coordinates": [
          5400,
          4600
        ]
      }
    },
    {
      "type": "Feature",
      "id": "missing-diplomat-original-investigation-defias-orders-and-manacles-focus",
      "properties": {
        "name": "defias-orders-and-manacles interpretive cast focus",
        "contentStatus": "research",
        "styleRole": "site",
        "geographicCertainty": "unknown"
      },
      "geometry": {
        "type": "Point",
        "coordinates": [
          6600,
          4600
        ]
      }
    },
    {
      "type": "Feature",
      "id": "missing-diplomat-original-investigation-elling-trias-focus",
      "properties": {
        "name": "elling-trias interpretive cast focus",
        "contentStatus": "research",
        "styleRole": "site",
        "geographicCertainty": "unknown"
      },
      "geometry": {
        "type": "Point",
        "coordinates": [
          7800,
          4600
        ]
      }
    },
    {
      "type": "Feature",
      "id": "missing-diplomat-original-investigation-garn-mathers-focus",
      "properties": {
        "name": "garn-mathers interpretive cast focus",
        "contentStatus": "research",
        "styleRole": "site",
        "geographicCertainty": "unknown"
      },
      "geometry": {
        "type": "Point",
        "coordinates": [
          3000,
          3100
        ]
      }
    },
    {
      "type": "Feature",
      "id": "missing-diplomat-original-investigation-jaina-proudmoore-focus",
      "properties": {
        "name": "jaina-proudmoore interpretive cast focus",
        "contentStatus": "research",
        "styleRole": "site",
        "geographicCertainty": "unknown"
      },
      "geometry": {
        "type": "Point",
        "coordinates": [
          4200,
          3100
        ]
      }
    },
    {
      "type": "Feature",
      "id": "missing-diplomat-original-investigation-jorgen-focus",
      "properties": {
        "name": "jorgen interpretive cast focus",
        "contentStatus": "research",
        "styleRole": "site",
        "geographicCertainty": "unknown"
      },
      "geometry": {
        "type": "Point",
        "coordinates": [
          5400,
          3100
        ]
      }
    },
    {
      "type": "Feature",
      "id": "missing-diplomat-original-investigation-katrana-prestor-focus",
      "properties": {
        "name": "katrana-prestor interpretive cast focus",
        "contentStatus": "research",
        "styleRole": "site",
        "geographicCertainty": "unknown"
      },
      "geometry": {
        "type": "Point",
        "coordinates": [
          6600,
          3100
        ]
      }
    },
    {
      "type": "Feature",
      "id": "missing-diplomat-original-investigation-private-hendel-focus",
      "properties": {
        "name": "private-hendel interpretive cast focus",
        "contentStatus": "research",
        "styleRole": "site",
        "geographicCertainty": "unknown"
      },
      "geometry": {
        "type": "Point",
        "coordinates": [
          7800,
          3100
        ]
      }
    },
    {
      "type": "Feature",
      "id": "missing-diplomat-original-investigation-renn-mcgill-focus",
      "properties": {
        "name": "renn-mcgill interpretive cast focus",
        "contentStatus": "research",
        "styleRole": "site",
        "geographicCertainty": "unknown"
      },
      "geometry": {
        "type": "Point",
        "coordinates": [
          3000,
          1600
        ]
      }
    },
    {
      "type": "Feature",
      "id": "missing-diplomat-original-investigation-tapoke-slim-jahn-focus",
      "properties": {
        "name": "tapoke-slim-jahn interpretive cast focus",
        "contentStatus": "research",
        "styleRole": "site",
        "geographicCertainty": "unknown"
      },
      "geometry": {
        "type": "Point",
        "coordinates": [
          4200,
          1600
        ]
      }
    },
    {
      "type": "Feature",
      "id": "missing-diplomat-original-investigation-thomas-focus",
      "properties": {
        "name": "thomas interpretive cast focus",
        "contentStatus": "research",
        "styleRole": "site",
        "geographicCertainty": "unknown"
      },
      "geometry": {
        "type": "Point",
        "coordinates": [
          5400,
          1600
        ]
      }
    },
    {
      "type": "Feature",
      "id": "missing-diplomat-original-investigation-varian-wrynn-focus",
      "properties": {
        "name": "varian-wrynn interpretive cast focus",
        "contentStatus": "research",
        "styleRole": "site",
        "geographicCertainty": "unknown"
      },
      "geometry": {
        "type": "Point",
        "coordinates": [
          6600,
          1600
        ]
      }
    },
    {
      "type": "Feature",
      "id": "missing-diplomat-original-investigation-watcher-backus-focus",
      "properties": {
        "name": "watcher-backus interpretive cast focus",
        "contentStatus": "research",
        "styleRole": "site",
        "geographicCertainty": "unknown"
      },
      "geometry": {
        "type": "Point",
        "coordinates": [
          7800,
          1600
        ]
      }
    }
  ]
}
