{"type":"FeatureCollection","features":[
 {"type":"Feature","id":"fourth-war-western-focus-research","properties":{"name":"Fourth War western theaters (broad)","contentStatus":"research","styleRole":"influence","geographicCertainty":"inferred"},"geometry":{"type":"Polygon","coordinates":[[[700,1600],[900,8200],[4100,8600],[4300,1800],[700,1600]]]}},
 {"type":"Feature","id":"fourth-war-eastern-focus-research","properties":{"name":"Fourth War eastern theaters (broad)","contentStatus":"research","styleRole":"influence","geographicCertainty":"inferred"},"geometry":{"type":"Polygon","coordinates":[[[5900,1300],[6000,8800],[9500,8500],[9600,1500],[5900,1300]]]}},
 {"type":"Feature","id":"sylvanas-fourth-war-focus-research","properties":{"name":"Sylvanas Fourth War narrative focus","contentStatus":"research","styleRole":"site","geographicCertainty":"unknown"},"geometry":{"type":"Point","coordinates":[7200,6000]}},
 {"type":"Feature","id":"jaina-fourth-war-focus-research","properties":{"name":"Jaina Fourth War narrative focus","contentStatus":"research","styleRole":"site","geographicCertainty":"unknown"},"geometry":{"type":"Point","coordinates":[2800,4200]}},
 {"type":"Feature","id":"thrall-fourth-war-focus-research","properties":{"name":"Thrall Fourth War narrative focus","contentStatus":"research","styleRole":"site","geographicCertainty":"unknown"},"geometry":{"type":"Point","coordinates":[3900,3900]}},
 {"type":"Feature","id":"new-horde-fourth-war-focus-research","properties":{"name":"New Horde Fourth War narrative focus","contentStatus":"research","styleRole":"site","geographicCertainty":"unknown"},"geometry":{"type":"Point","coordinates":[4700,4500]}},
 {"type":"Feature","id":"nzoth-assault-region-research","properties":{"name":"N'Zoth assault pressure (interpretive, not territorial)","contentStatus":"research","styleRole":"influence","geographicCertainty":"inferred"},"geometry":{"type":"Polygon","coordinates":[[[1800,2600],[2600,7200],[5200,8200],[8200,6700],[7800,2500],[4300,1500],[1800,2600]]]}},
 {"type":"Feature","id":"old-gods-nzoth-focus-research","properties":{"name":"N'Zoth narrative focus","contentStatus":"research","styleRole":"site","geographicCertainty":"unknown"},"geometry":{"type":"Point","coordinates":[5300,4800]}},
 {"type":"Feature","id":"adventurers-nzoth-focus-research","properties":{"name":"Defenders against N'Zoth narrative focus","contentStatus":"research","styleRole":"site","geographicCertainty":"unknown"},"geometry":{"type":"Point","coordinates":[4300,3900]}},
 {"type":"Feature","id":"dragon-isles-focus-research","properties":{"name":"Dragon Isles (approximate atlas focus)","contentStatus":"research","styleRole":"site","geographicCertainty":"approximate"},"geometry":{"type":"Point","coordinates":[8800,7100]}},
 {"type":"Feature","id":"dragonflights-focus-research","properties":{"name":"Dragonflights narrative focus","contentStatus":"research","styleRole":"site","geographicCertainty":"unknown"},"geometry":{"type":"Point","coordinates":[8200,6500]}},
 {"type":"Feature","id":"adventurers-dragon-isles-focus-research","properties":{"name":"Dragon Isles expedition focus","contentStatus":"research","styleRole":"site","geographicCertainty":"unknown"},"geometry":{"type":"Point","coordinates":[7600,6000]}},
 {"type":"Feature","id":"khaz-algar-focus-research","properties":{"name":"Khaz Algar (approximate compressed focus)","contentStatus":"research","styleRole":"site","geographicCertainty":"approximate"},"geometry":{"type":"Point","coordinates":[6900,1800]}},
 {"type":"Feature","id":"xalatath-khaz-algar-focus-research","properties":{"name":"Xal'atath Khaz Algar narrative focus","contentStatus":"research","styleRole":"site","geographicCertainty":"unknown"},"geometry":{"type":"Point","coordinates":[6400,2300]}},
 {"type":"Feature","id":"earthen-khaz-algar-focus-research","properties":{"name":"Earthen Khaz Algar narrative focus","contentStatus":"research","styleRole":"site","geographicCertainty":"unknown"},"geometry":{"type":"Point","coordinates":[7300,1500]}},
 {"type":"Feature","id":"adventurers-khaz-algar-focus-research","properties":{"name":"Khaz Algar expedition focus","contentStatus":"research","styleRole":"site","geographicCertainty":"unknown"},"geometry":{"type":"Point","coordinates":[6000,1400]}},
 {"type":"Feature","id":"eversong-midnight-focus-research","properties":{"name":"Eversong Woods (approximate Midnight focus)","contentStatus":"research","styleRole":"site","geographicCertainty":"approximate"},"geometry":{"type":"Point","coordinates":[8850,7900]}},
 {"type":"Feature","id":"xalatath-midnight-focus-research","properties":{"name":"Xal’atath Midnight narrative focus (non-geographic)","contentStatus":"research","styleRole":"site","geographicCertainty":"unknown"},"geometry":{"type":"Point","coordinates":[8250,7300]}},
 {"type":"Feature","id":"sunwell-midnight-focus-research","properties":{"name":"Sunwell / Darkwell / Dawnwell site (approximate)","contentStatus":"research","styleRole":"site","geographicCertainty":"approximate"},"geometry":{"type":"Point","coordinates":[9030,8000]}},
 {"type":"Feature","id":"coiled-isle-focus-research","properties":{"name":"Coiled Isle east of Zul’Aman (approximate)","contentStatus":"research","styleRole":"site","geographicCertainty":"approximate"},"geometry":{"type":"Point","coordinates":[9510,7780]}}
]}
