{
  "type": "FeatureCollection",
  "name": "Netherwing relational story theater",
  "features": [
    {
      "type": "Feature",
      "id": "netherwing-liberation-mordenai-focus",
      "properties": {
        "name": "Mordenai relational story focus",
        "contentStatus": "research",
        "styleRole": "site",
        "geographicCertainty": "unknown"
      },
      "geometry": {
        "type": "Point",
        "coordinates": [
          5000,
          5000
        ]
      }
    },
    {
      "type": "Feature",
      "id": "netherwing-liberation-neltharaku-focus",
      "properties": {
        "name": "Neltharaku relational story focus",
        "contentStatus": "research",
        "styleRole": "site",
        "geographicCertainty": "unknown"
      },
      "geometry": {
        "type": "Point",
        "coordinates": [
          6339,
          5341
        ]
      }
    },
    {
      "type": "Feature",
      "id": "netherwing-liberation-karynaku-focus",
      "properties": {
        "name": "Karynaku relational story focus",
        "contentStatus": "research",
        "styleRole": "site",
        "geographicCertainty": "unknown"
      },
      "geometry": {
        "type": "Point",
        "coordinates": [
          5000,
          5720
        ]
      }
    },
    {
      "type": "Feature",
      "id": "netherwing-liberation-zuluhed-the-whacked-focus",
      "properties": {
        "name": "Zuluhed the Whacked relational story focus",
        "contentStatus": "research",
        "styleRole": "site",
        "geographicCertainty": "unknown"
      },
      "geometry": {
        "type": "Point",
        "coordinates": [
          5888,
          6076
        ]
      }
    },
    {
      "type": "Feature",
      "id": "netherwing-liberation-dragonmaw-overseers-focus",
      "properties": {
        "name": "Dragonmaw overseers relational story focus",
        "contentStatus": "research",
        "styleRole": "site",
        "geographicCertainty": "unknown"
      },
      "geometry": {
        "type": "Point",
        "coordinates": [
          5217,
          5862
        ]
      }
    },
    {
      "type": "Feature",
      "id": "netherwing-liberation-enslaved-netherwing-drakes-focus",
      "properties": {
        "name": "Enslaved Netherwing drakes relational story focus",
        "contentStatus": "research",
        "styleRole": "site",
        "geographicCertainty": "unknown"
      },
      "geometry": {
        "type": "Point",
        "coordinates": [
          4753,
          5982
        ]
      }
    },
    {
      "type": "Feature",
      "id": "netherwing-liberation-overlord-morghor-focus",
      "properties": {
        "name": "Overlord Mor’ghor relational story focus",
        "contentStatus": "research",
        "styleRole": "site",
        "geographicCertainty": "unknown"
      },
      "geometry": {
        "type": "Point",
        "coordinates": [
          4100,
          5970
        ]
      }
    },
    {
      "type": "Feature",
      "id": "netherwing-liberation-yarzill-the-merc-focus",
      "properties": {
        "name": "Yarzill the Merc relational story focus",
        "contentStatus": "research",
        "styleRole": "site",
        "geographicCertainty": "unknown"
      },
      "geometry": {
        "type": "Point",
        "coordinates": [
          5000,
          5799
        ]
      }
    },
    {
      "type": "Feature",
      "id": "netherwing-liberation-yarzill-netherwing-form-focus",
      "properties": {
        "name": "Yarzill, revealed as a Netherwing drake relational story focus",
        "contentStatus": "research",
        "styleRole": "site",
        "geographicCertainty": "unknown"
      },
      "geometry": {
        "type": "Point",
        "coordinates": [
          5000,
          5299
        ]
      }
    },
    {
      "type": "Feature",
      "id": "netherwing-liberation-mistress-of-the-mines-focus",
      "properties": {
        "name": "Mistress of the Mines relational story focus",
        "contentStatus": "research",
        "styleRole": "site",
        "geographicCertainty": "unknown"
      },
      "geometry": {
        "type": "Point",
        "coordinates": [
          3575,
          5000
        ]
      }
    },
    {
      "type": "Feature",
      "id": "netherwing-liberation-unnamed-murkblood-informant-focus",
      "properties": {
        "name": "Unnamed Murkblood overseer relational story focus",
        "contentStatus": "research",
        "styleRole": "site",
        "geographicCertainty": "unknown"
      },
      "geometry": {
        "type": "Point",
        "coordinates": [
          5300,
          4217
        ]
      }
    },
    {
      "type": "Feature",
      "id": "netherwing-liberation-barthamus-focus",
      "properties": {
        "name": "Barthamus relational story focus",
        "contentStatus": "research",
        "styleRole": "site",
        "geographicCertainty": "unknown"
      },
      "geometry": {
        "type": "Point",
        "coordinates": [
          3640,
          4201
        ]
      }
    },
    {
      "type": "Feature",
      "id": "netherwing-liberation-netherwing-drake-companions-focus",
      "properties": {
        "name": "Netherwing drake companions relational story focus",
        "contentStatus": "research",
        "styleRole": "site",
        "geographicCertainty": "unknown"
      },
      "geometry": {
        "type": "Point",
        "coordinates": [
          4375,
          4242
        ]
      }
    },
    {
      "type": "Feature",
      "id": "netherwing-liberation-nethervine-crystal-focus",
      "properties": {
        "name": "Nethervine crystal relational story focus",
        "contentStatus": "research",
        "styleRole": "site",
        "geographicCertainty": "unknown"
      },
      "geometry": {
        "type": "Point",
        "coordinates": [
          4753,
          4018
        ]
      }
    },
    {
      "type": "Feature",
      "id": "netherwing-liberation-enchanted-nethervine-crystal-focus",
      "properties": {
        "name": "Enchanted Nethervine Crystal relational story focus",
        "contentStatus": "research",
        "styleRole": "site",
        "geographicCertainty": "unknown"
      },
      "geometry": {
        "type": "Point",
        "coordinates": [
          5278,
          3897
        ]
      }
    },
    {
      "type": "Feature",
      "id": "netherwing-liberation-zuluheds-key-and-broken-chain-focus",
      "properties": {
        "name": "Zuluhed’s key and Karynaku’s opened chain relational story focus",
        "contentStatus": "research",
        "styleRole": "site",
        "geographicCertainty": "unknown"
      },
      "geometry": {
        "type": "Point",
        "coordinates": [
          5887,
          3924
        ]
      }
    },
    {
      "type": "Feature",
      "id": "netherwing-liberation-murkblood-escape-plans-focus",
      "properties": {
        "name": "Murkblood Escape Plans relational story focus",
        "contentStatus": "research",
        "styleRole": "site",
        "geographicCertainty": "unknown"
      },
      "geometry": {
        "type": "Point",
        "coordinates": [
          5958,
          4438
        ]
      }
    },
    {
      "type": "Feature",
      "id": "netherwing-liberation-illidan-stormrage-focus",
      "properties": {
        "name": "Illidan Stormrage relational story focus",
        "contentStatus": "research",
        "styleRole": "site",
        "geographicCertainty": "unknown"
      },
      "geometry": {
        "type": "Point",
        "coordinates": [
          5730,
          4659
        ]
      }
    }
  ]
}
