{
  "type": "FeatureCollection",
  "features": [
    {
      "type": "Feature",
      "id": "onyxia-alliance-adventurers-focus",
      "properties": {
        "name": "alliance-adventurers editorial focus",
        "contentStatus": "research",
        "styleRole": "site",
        "geographicCertainty": "unknown"
      },
      "geometry": {
        "type": "Point",
        "coordinates": [
          3600,
          5500
        ]
      }
    },
    {
      "type": "Feature",
      "id": "onyxia-bolvar-fordragon-focus",
      "properties": {
        "name": "bolvar-fordragon editorial focus",
        "contentStatus": "research",
        "styleRole": "site",
        "geographicCertainty": "unknown"
      },
      "geometry": {
        "type": "Point",
        "coordinates": [
          4533.333333333333,
          5500
        ]
      }
    },
    {
      "type": "Feature",
      "id": "onyxia-katrana-prestor-focus",
      "properties": {
        "name": "katrana-prestor editorial focus",
        "contentStatus": "research",
        "styleRole": "site",
        "geographicCertainty": "unknown"
      },
      "geometry": {
        "type": "Point",
        "coordinates": [
          5466.666666666667,
          5500
        ]
      }
    },
    {
      "type": "Feature",
      "id": "onyxia-marshal-windsor-focus",
      "properties": {
        "name": "marshal-windsor editorial focus",
        "contentStatus": "research",
        "styleRole": "site",
        "geographicCertainty": "unknown"
      },
      "geometry": {
        "type": "Point",
        "coordinates": [
          5466.666666666667,
          5500
        ]
      }
    },
    {
      "type": "Feature",
      "id": "onyxia-onyxia-focus",
      "properties": {
        "name": "onyxia editorial focus",
        "contentStatus": "research",
        "styleRole": "site",
        "geographicCertainty": "unknown"
      },
      "geometry": {
        "type": "Point",
        "coordinates": [
          6400,
          5500
        ]
      }
    },
    {
      "type": "Feature",
      "id": "onyxia-haleh-focus",
      "properties": {
        "name": "haleh editorial focus",
        "contentStatus": "research",
        "styleRole": "site",
        "geographicCertainty": "unknown"
      },
      "geometry": {
        "type": "Point",
        "coordinates": [
          4533.333333333333,
          5500
        ]
      }
    },
    {
      "type": "Feature",
      "id": "onyxia-dragon-eye-fragment-focus",
      "properties": {
        "name": "dragon-eye-fragment editorial focus",
        "contentStatus": "research",
        "styleRole": "site",
        "geographicCertainty": "unknown"
      },
      "geometry": {
        "type": "Point",
        "coordinates": [
          5466.666666666667,
          5500
        ]
      }
    },
    {
      "type": "Feature",
      "id": "onyxia-general-drakkisath-focus",
      "properties": {
        "name": "general-drakkisath editorial focus",
        "contentStatus": "research",
        "styleRole": "site",
        "geographicCertainty": "unknown"
      },
      "geometry": {
        "type": "Point",
        "coordinates": [
          4533.333333333333,
          5500
        ]
      }
    },
    {
      "type": "Feature",
      "id": "onyxia-drakefire-amulet-focus",
      "properties": {
        "name": "drakefire-amulet editorial focus",
        "contentStatus": "research",
        "styleRole": "site",
        "geographicCertainty": "unknown"
      },
      "geometry": {
        "type": "Point",
        "coordinates": [
          5466.666666666667,
          5500
        ]
      }
    },
    {
      "type": "Feature",
      "id": "onyxia-horde-adventurers-focus",
      "properties": {
        "name": "horde-adventurers editorial focus",
        "contentStatus": "research",
        "styleRole": "site",
        "geographicCertainty": "unknown"
      },
      "geometry": {
        "type": "Point",
        "coordinates": [
          3600,
          5500
        ]
      }
    },
    {
      "type": "Feature",
      "id": "onyxia-eitrigg-focus",
      "properties": {
        "name": "eitrigg editorial focus",
        "contentStatus": "research",
        "styleRole": "site",
        "geographicCertainty": "unknown"
      },
      "geometry": {
        "type": "Point",
        "coordinates": [
          4533.333333333333,
          5500
        ]
      }
    },
    {
      "type": "Feature",
      "id": "onyxia-warchief-rend-blackhand-focus",
      "properties": {
        "name": "warchief-rend-blackhand editorial focus",
        "contentStatus": "research",
        "styleRole": "site",
        "geographicCertainty": "unknown"
      },
      "geometry": {
        "type": "Point",
        "coordinates": [
          4533.333333333333,
          5500
        ]
      }
    },
    {
      "type": "Feature",
      "id": "onyxia-thrall-focus",
      "properties": {
        "name": "thrall editorial focus",
        "contentStatus": "research",
        "styleRole": "site",
        "geographicCertainty": "unknown"
      },
      "geometry": {
        "type": "Point",
        "coordinates": [
          4533.333333333333,
          5500
        ]
      }
    },
    {
      "type": "Feature",
      "id": "onyxia-rexxar-focus",
      "properties": {
        "name": "rexxar editorial focus",
        "contentStatus": "research",
        "styleRole": "site",
        "geographicCertainty": "unknown"
      },
      "geometry": {
        "type": "Point",
        "coordinates": [
          4533.333333333333,
          5500
        ]
      }
    },
    {
      "type": "Feature",
      "id": "onyxia-myranda-the-hag-focus",
      "properties": {
        "name": "myranda-the-hag editorial focus",
        "contentStatus": "research",
        "styleRole": "site",
        "geographicCertainty": "unknown"
      },
      "geometry": {
        "type": "Point",
        "coordinates": [
          4533.333333333333,
          5500
        ]
      }
    },
    {
      "type": "Feature",
      "id": "onyxia-amulet-of-draconic-subversion-focus",
      "properties": {
        "name": "amulet-of-draconic-subversion editorial focus",
        "contentStatus": "research",
        "styleRole": "site",
        "geographicCertainty": "unknown"
      },
      "geometry": {
        "type": "Point",
        "coordinates": [
          5466.666666666667,
          5500
        ]
      }
    },
    {
      "type": "Feature",
      "id": "onyxia-emberstrife-focus",
      "properties": {
        "name": "emberstrife editorial focus",
        "contentStatus": "research",
        "styleRole": "site",
        "geographicCertainty": "unknown"
      },
      "geometry": {
        "type": "Point",
        "coordinates": [
          4533.333333333333,
          5500
        ]
      }
    },
    {
      "type": "Feature",
      "id": "onyxia-test-skull-dragons-focus",
      "properties": {
        "name": "test-skull-dragons editorial focus",
        "contentStatus": "research",
        "styleRole": "site",
        "geographicCertainty": "unknown"
      },
      "geometry": {
        "type": "Point",
        "coordinates": [
          4533.333333333333,
          5500
        ]
      }
    },
    {
      "type": "Feature",
      "id": "onyxia-axtroz-focus",
      "properties": {
        "name": "axtroz editorial focus",
        "contentStatus": "research",
        "styleRole": "site",
        "geographicCertainty": "unknown"
      },
      "geometry": {
        "type": "Point",
        "coordinates": [
          4533.333333333333,
          5500
        ]
      }
    }
  ]
}
