{
  "type": "FeatureCollection",
  "features": [
    {
      "type": "Feature",
      "id": "quel-delar-restored-thalorien-dawnseeker-focus",
      "properties": {
        "name": "Thalorien Dawnseeker editorial story focus",
        "contentStatus": "research",
        "styleRole": "site",
        "geographicCertainty": "unknown"
      },
      "geometry": {
        "type": "Point",
        "coordinates": [
          4200,
          6500
        ]
      }
    },
    {
      "type": "Feature",
      "id": "quel-delar-restored-blood-queen-lanathel-focus",
      "properties": {
        "name": "Blood-Queen Lana’thel editorial story focus",
        "contentStatus": "research",
        "styleRole": "site",
        "geographicCertainty": "unknown"
      },
      "geometry": {
        "type": "Point",
        "coordinates": [
          4200,
          6500
        ]
      }
    },
    {
      "type": "Feature",
      "id": "quel-delar-restored-krasus-focus",
      "properties": {
        "name": "Krasus editorial story focus",
        "contentStatus": "research",
        "styleRole": "site",
        "geographicCertainty": "unknown"
      },
      "geometry": {
        "type": "Point",
        "coordinates": [
          4200,
          6500
        ]
      }
    },
    {
      "type": "Feature",
      "id": "quel-delar-restored-kalecgos-focus",
      "properties": {
        "name": "Kalecgos editorial story focus",
        "contentStatus": "research",
        "styleRole": "site",
        "geographicCertainty": "unknown"
      },
      "geometry": {
        "type": "Point",
        "coordinates": [
          5700,
          6500
        ]
      }
    },
    {
      "type": "Feature",
      "id": "quel-delar-restored-alexstrasza-focus",
      "properties": {
        "name": "Alexstrasza editorial story focus",
        "contentStatus": "research",
        "styleRole": "site",
        "geographicCertainty": "unknown"
      },
      "geometry": {
        "type": "Point",
        "coordinates": [
          4200,
          4000
        ]
      }
    },
    {
      "type": "Feature",
      "id": "quel-delar-restored-anasterian-sunstrider-focus",
      "properties": {
        "name": "Anasterian Sunstrider editorial story focus",
        "contentStatus": "research",
        "styleRole": "site",
        "geographicCertainty": "unknown"
      },
      "geometry": {
        "type": "Point",
        "coordinates": [
          5700,
          6500
        ]
      }
    },
    {
      "type": "Feature",
      "id": "quel-delar-restored-caladis-brightspear-focus",
      "properties": {
        "name": "Caladis Brightspear editorial story focus",
        "contentStatus": "research",
        "styleRole": "site",
        "geographicCertainty": "unknown"
      },
      "geometry": {
        "type": "Point",
        "coordinates": [
          4200,
          6500
        ]
      }
    },
    {
      "type": "Feature",
      "id": "quel-delar-restored-myralion-sunblaze-focus",
      "properties": {
        "name": "Myralion Sunblaze editorial story focus",
        "contentStatus": "research",
        "styleRole": "site",
        "geographicCertainty": "unknown"
      },
      "geometry": {
        "type": "Point",
        "coordinates": [
          5700,
          6500
        ]
      }
    },
    {
      "type": "Feature",
      "id": "quel-delar-restored-halduron-brightwing-focus",
      "properties": {
        "name": "Halduron Brightwing editorial story focus",
        "contentStatus": "research",
        "styleRole": "site",
        "geographicCertainty": "unknown"
      },
      "geometry": {
        "type": "Point",
        "coordinates": [
          4200,
          6500
        ]
      }
    },
    {
      "type": "Feature",
      "id": "quel-delar-restored-aethas-sunreaver-focus",
      "properties": {
        "name": "Aethas Sunreaver editorial story focus",
        "contentStatus": "research",
        "styleRole": "site",
        "geographicCertainty": "unknown"
      },
      "geometry": {
        "type": "Point",
        "coordinates": [
          4200,
          4000
        ]
      }
    },
    {
      "type": "Feature",
      "id": "quel-delar-restored-uther-lightbringer-focus",
      "properties": {
        "name": "Uther Lightbringer editorial story focus",
        "contentStatus": "research",
        "styleRole": "site",
        "geographicCertainty": "unknown"
      },
      "geometry": {
        "type": "Point",
        "coordinates": [
          4200,
          6500
        ]
      }
    },
    {
      "type": "Feature",
      "id": "quel-delar-restored-silver-covenant-focus",
      "properties": {
        "name": "Silver Covenant editorial story focus",
        "contentStatus": "research",
        "styleRole": "site",
        "geographicCertainty": "unknown"
      },
      "geometry": {
        "type": "Point",
        "coordinates": [
          5700,
          4000
        ]
      }
    },
    {
      "type": "Feature",
      "id": "quel-delar-restored-sunreavers-focus",
      "properties": {
        "name": "Sunreavers editorial story focus",
        "contentStatus": "research",
        "styleRole": "site",
        "geographicCertainty": "unknown"
      },
      "geometry": {
        "type": "Point",
        "coordinates": [
          4300,
          1500
        ]
      }
    },
    {
      "type": "Feature",
      "id": "quel-delar-restored-quel-delar-focus",
      "properties": {
        "name": "Quel’Delar editorial story focus",
        "contentStatus": "research",
        "styleRole": "site",
        "geographicCertainty": "unknown"
      },
      "geometry": {
        "type": "Point",
        "coordinates": [
          5700,
          1500
        ]
      }
    },
    {
      "type": "Feature",
      "id": "quel-delar-restored-battered-hilt-focus",
      "properties": {
        "name": "Battered Hilt editorial story focus",
        "contentStatus": "research",
        "styleRole": "site",
        "geographicCertainty": "unknown"
      },
      "geometry": {
        "type": "Point",
        "coordinates": [
          5700,
          4000
        ]
      }
    },
    {
      "type": "Feature",
      "id": "quel-delar-restored-ancient-dragonforged-blades-record-focus",
      "properties": {
        "name": "Dragonforged blade records editorial story focus",
        "contentStatus": "research",
        "styleRole": "site",
        "geographicCertainty": "unknown"
      },
      "geometry": {
        "type": "Point",
        "coordinates": [
          4200,
          6500
        ]
      }
    }
  ]
}
