{
  "type": "FeatureCollection",
  "features": [
    {
      "type": "Feature",
      "id": "ras-frostwhisper-and-the-soulbound-keepsake-ras-frostwhisper-and-the-soulbound-keepsake-caer-darrow-focus",
      "properties": {
        "name": "Caer Darrow editorial focus",
        "contentStatus": "research",
        "styleRole": "site",
        "geographicCertainty": "unknown"
      },
      "geometry": {
        "type": "Point",
        "coordinates": [
          3300,
          5500
        ]
      }
    },
    {
      "type": "Feature",
      "id": "ras-frostwhisper-and-the-soulbound-keepsake-ras-frostwhisper-and-the-soulbound-keepsake-stromgarde-keep-focus",
      "properties": {
        "name": "Stromgarde Keep editorial focus",
        "contentStatus": "research",
        "styleRole": "site",
        "geographicCertainty": "unknown"
      },
      "geometry": {
        "type": "Point",
        "coordinates": [
          3300,
          5500
        ]
      }
    },
    {
      "type": "Feature",
      "id": "ras-frostwhisper-and-the-soulbound-keepsake-ras-frostwhisper-and-the-soulbound-keepsake-lights-hope-chapel-focus",
      "properties": {
        "name": "Light’s Hope Chapel editorial focus",
        "contentStatus": "research",
        "styleRole": "site",
        "geographicCertainty": "unknown"
      },
      "geometry": {
        "type": "Point",
        "coordinates": [
          3300,
          5500
        ]
      }
    },
    {
      "type": "Feature",
      "id": "ras-frostwhisper-and-the-soulbound-keepsake-ras-frostwhisper-and-the-soulbound-keepsake-stratholme-menethils-gift-focus",
      "properties": {
        "name": "Menethil’s Gift editorial focus",
        "contentStatus": "research",
        "styleRole": "site",
        "geographicCertainty": "unknown"
      },
      "geometry": {
        "type": "Point",
        "coordinates": [
          3300,
          5500
        ]
      }
    },
    {
      "type": "Feature",
      "id": "ras-frostwhisper-and-the-soulbound-keepsake-ras-frostwhisper-and-the-soulbound-keepsake-scholomance-focus",
      "properties": {
        "name": "Scholomance editorial focus",
        "contentStatus": "research",
        "styleRole": "site",
        "geographicCertainty": "unknown"
      },
      "geometry": {
        "type": "Point",
        "coordinates": [
          3300,
          5500
        ]
      }
    },
    {
      "type": "Feature",
      "id": "ras-frostwhisper-and-the-soulbound-keepsake-magistrate-marduke-focus",
      "properties": {
        "name": "Magistrate Marduke editorial focus",
        "contentStatus": "research",
        "styleRole": "site",
        "geographicCertainty": "unknown"
      },
      "geometry": {
        "type": "Point",
        "coordinates": [
          3300,
          5500
        ]
      }
    },
    {
      "type": "Feature",
      "id": "ras-frostwhisper-and-the-soulbound-keepsake-leonid-barthalomew-revered-focus",
      "properties": {
        "name": "Leonid Barthalomew the Revered editorial focus",
        "contentStatus": "research",
        "styleRole": "site",
        "geographicCertainty": "unknown"
      },
      "geometry": {
        "type": "Point",
        "coordinates": [
          3300,
          5500
        ]
      }
    },
    {
      "type": "Feature",
      "id": "ras-frostwhisper-and-the-soulbound-keepsake-ras-frostwhisper-focus",
      "properties": {
        "name": "Ras Frostwhisper editorial focus",
        "contentStatus": "research",
        "styleRole": "site",
        "geographicCertainty": "unknown"
      },
      "geometry": {
        "type": "Point",
        "coordinates": [
          3300,
          5500
        ]
      }
    },
    {
      "type": "Feature",
      "id": "ras-frostwhisper-and-the-soulbound-keepsake-ras-frostwhisper-human-memory-focus",
      "properties": {
        "name": "Ras Frostwhisper in Leonid’s memory editorial focus",
        "contentStatus": "research",
        "styleRole": "site",
        "geographicCertainty": "unknown"
      },
      "geometry": {
        "type": "Point",
        "coordinates": [
          5000,
          5500
        ]
      }
    },
    {
      "type": "Feature",
      "id": "ras-frostwhisper-and-the-soulbound-keepsake-keepsake-of-remembrance-focus",
      "properties": {
        "name": "Keepsake of Remembrance editorial focus",
        "contentStatus": "research",
        "styleRole": "site",
        "geographicCertainty": "unknown"
      },
      "geometry": {
        "type": "Point",
        "coordinates": [
          6700,
          5500
        ]
      }
    },
    {
      "type": "Feature",
      "id": "ras-frostwhisper-and-the-soulbound-keepsake-human-head-of-ras-frostwhisper-focus",
      "properties": {
        "name": "Human Head of Ras Frostwhisper editorial focus",
        "contentStatus": "research",
        "styleRole": "site",
        "geographicCertainty": "unknown"
      },
      "geometry": {
        "type": "Point",
        "coordinates": [
          5000,
          5500
        ]
      }
    }
  ]
}
