{
  "type": "FeatureCollection",
  "features": [
    {
      "type": "Feature",
      "id": "scepter-fandral-staghelm-focus",
      "properties": {
        "name": "fandral-staghelm editorial focus",
        "contentStatus": "research",
        "styleRole": "site",
        "geographicCertainty": "unknown"
      },
      "geometry": {
        "type": "Point",
        "coordinates": [
          4000,
          5500
        ]
      }
    },
    {
      "type": "Feature",
      "id": "scepter-valstann-staghelm-focus",
      "properties": {
        "name": "valstann-staghelm editorial focus",
        "contentStatus": "research",
        "styleRole": "site",
        "geographicCertainty": "unknown"
      },
      "geometry": {
        "type": "Point",
        "coordinates": [
          5000,
          5500
        ]
      }
    },
    {
      "type": "Feature",
      "id": "scepter-anachronos-focus",
      "properties": {
        "name": "anachronos editorial focus",
        "contentStatus": "research",
        "styleRole": "site",
        "geographicCertainty": "unknown"
      },
      "geometry": {
        "type": "Point",
        "coordinates": [
          4500,
          5500
        ]
      }
    },
    {
      "type": "Feature",
      "id": "scepter-dragonflight-defenders-focus",
      "properties": {
        "name": "dragonflight-defenders editorial focus",
        "contentStatus": "research",
        "styleRole": "site",
        "geographicCertainty": "unknown"
      },
      "geometry": {
        "type": "Point",
        "coordinates": [
          5000,
          5500
        ]
      }
    },
    {
      "type": "Feature",
      "id": "scepter-vaelastrasz-focus",
      "properties": {
        "name": "vaelastrasz editorial focus",
        "contentStatus": "research",
        "styleRole": "site",
        "geographicCertainty": "unknown"
      },
      "geometry": {
        "type": "Point",
        "coordinates": [
          5500,
          5500
        ]
      }
    },
    {
      "type": "Feature",
      "id": "scepter-eranikus-focus",
      "properties": {
        "name": "eranikus editorial focus",
        "contentStatus": "research",
        "styleRole": "site",
        "geographicCertainty": "unknown"
      },
      "geometry": {
        "type": "Point",
        "coordinates": [
          5000,
          5500
        ]
      }
    },
    {
      "type": "Feature",
      "id": "scepter-azuregos-focus",
      "properties": {
        "name": "azuregos editorial focus",
        "contentStatus": "research",
        "styleRole": "site",
        "geographicCertainty": "unknown"
      },
      "geometry": {
        "type": "Point",
        "coordinates": [
          6000,
          5500
        ]
      }
    },
    {
      "type": "Feature",
      "id": "scepter-baristolth-focus",
      "properties": {
        "name": "baristolth editorial focus",
        "contentStatus": "research",
        "styleRole": "site",
        "geographicCertainty": "unknown"
      },
      "geometry": {
        "type": "Point",
        "coordinates": [
          5000,
          5500
        ]
      }
    },
    {
      "type": "Feature",
      "id": "scepter-adventurers-of-azeroth-focus",
      "properties": {
        "name": "adventurers-of-azeroth editorial focus",
        "contentStatus": "research",
        "styleRole": "site",
        "geographicCertainty": "unknown"
      },
      "geometry": {
        "type": "Point",
        "coordinates": [
          4000,
          5500
        ]
      }
    },
    {
      "type": "Feature",
      "id": "scepter-nefarian-focus",
      "properties": {
        "name": "nefarian editorial focus",
        "contentStatus": "research",
        "styleRole": "site",
        "geographicCertainty": "unknown"
      },
      "geometry": {
        "type": "Point",
        "coordinates": [
          4500,
          5500
        ]
      }
    },
    {
      "type": "Feature",
      "id": "scepter-scepter-relic-focus",
      "properties": {
        "name": "scepter-relic editorial focus",
        "contentStatus": "research",
        "styleRole": "site",
        "geographicCertainty": "unknown"
      },
      "geometry": {
        "type": "Point",
        "coordinates": [
          5000,
          5500
        ]
      }
    },
    {
      "type": "Feature",
      "id": "scepter-malfurion-stormrage-focus",
      "properties": {
        "name": "malfurion-stormrage editorial focus",
        "contentStatus": "research",
        "styleRole": "site",
        "geographicCertainty": "unknown"
      },
      "geometry": {
        "type": "Point",
        "coordinates": [
          4000,
          5500
        ]
      }
    },
    {
      "type": "Feature",
      "id": "scepter-keeper-remulos-focus",
      "properties": {
        "name": "keeper-remulos editorial focus",
        "contentStatus": "research",
        "styleRole": "site",
        "geographicCertainty": "unknown"
      },
      "geometry": {
        "type": "Point",
        "coordinates": [
          4500,
          5500
        ]
      }
    },
    {
      "type": "Feature",
      "id": "scepter-tyrande-whisperwind-focus",
      "properties": {
        "name": "tyrande-whisperwind editorial focus",
        "contentStatus": "research",
        "styleRole": "site",
        "geographicCertainty": "unknown"
      },
      "geometry": {
        "type": "Point",
        "coordinates": [
          4000,
          5500
        ]
      }
    },
    {
      "type": "Feature",
      "id": "scepter-narain-soothfancy-focus",
      "properties": {
        "name": "narain-soothfancy editorial focus",
        "contentStatus": "research",
        "styleRole": "site",
        "geographicCertainty": "unknown"
      },
      "geometry": {
        "type": "Point",
        "coordinates": [
          4500,
          5500
        ]
      }
    },
    {
      "type": "Feature",
      "id": "scepter-stewvul-focus",
      "properties": {
        "name": "stewvul editorial focus",
        "contentStatus": "research",
        "styleRole": "site",
        "geographicCertainty": "unknown"
      },
      "geometry": {
        "type": "Point",
        "coordinates": [
          5000,
          5500
        ]
      }
    },
    {
      "type": "Feature",
      "id": "scepter-dirge-quikcleave-focus",
      "properties": {
        "name": "dirge-quikcleave editorial focus",
        "contentStatus": "research",
        "styleRole": "site",
        "geographicCertainty": "unknown"
      },
      "geometry": {
        "type": "Point",
        "coordinates": [
          5000,
          5500
        ]
      }
    },
    {
      "type": "Feature",
      "id": "scepter-number-two-focus",
      "properties": {
        "name": "number-two editorial focus",
        "contentStatus": "research",
        "styleRole": "site",
        "geographicCertainty": "unknown"
      },
      "geometry": {
        "type": "Point",
        "coordinates": [
          5000,
          5500
        ]
      }
    },
    {
      "type": "Feature",
      "id": "scepter-doctor-weavil-focus",
      "properties": {
        "name": "doctor-weavil editorial focus",
        "contentStatus": "research",
        "styleRole": "site",
        "geographicCertainty": "unknown"
      },
      "geometry": {
        "type": "Point",
        "coordinates": [
          5500,
          5500
        ]
      }
    },
    {
      "type": "Feature",
      "id": "scepter-maws-focus",
      "properties": {
        "name": "maws editorial focus",
        "contentStatus": "research",
        "styleRole": "site",
        "geographicCertainty": "unknown"
      },
      "geometry": {
        "type": "Point",
        "coordinates": [
          4500,
          5500
        ]
      }
    },
    {
      "type": "Feature",
      "id": "scepter-cthun-scepter-focus",
      "properties": {
        "name": "cthun-scepter editorial focus",
        "contentStatus": "research",
        "styleRole": "site",
        "geographicCertainty": "unknown"
      },
      "geometry": {
        "type": "Point",
        "coordinates": [
          4500,
          5500
        ]
      }
    }
  ]
}
