{
  "type": "FeatureCollection",
  "features": [
    {
      "type": "Feature",
      "id": "scythe-of-elune-original-mystery-melyria-frostshadow-theater-focus",
      "properties": {
        "name": "Sentinel Melyria Frostshadow editorial focus",
        "contentStatus": "research",
        "styleRole": "site",
        "geographicCertainty": "unknown"
      },
      "geometry": {
        "type": "Point",
        "coordinates": [
          2800,
          5600
        ]
      }
    },
    {
      "type": "Feature",
      "id": "scythe-of-elune-original-mystery-velinde-starsong-theater-focus",
      "properties": {
        "name": "Velinde Starsong editorial focus",
        "contentStatus": "research",
        "styleRole": "site",
        "geographicCertainty": "unknown"
      },
      "geometry": {
        "type": "Point",
        "coordinates": [
          4200,
          5600
        ]
      }
    },
    {
      "type": "Feature",
      "id": "scythe-of-elune-original-mystery-scythe-artifact-theater-focus",
      "properties": {
        "name": "The Scythe of Elune editorial focus",
        "contentStatus": "research",
        "styleRole": "site",
        "geographicCertainty": "unknown"
      },
      "geometry": {
        "type": "Point",
        "coordinates": [
          5900,
          4900
        ]
      }
    },
    {
      "type": "Feature",
      "id": "scythe-of-elune-original-mystery-thyntel-bladeweaver-theater-focus",
      "properties": {
        "name": "Thyn’tel Bladeweaver editorial focus",
        "contentStatus": "research",
        "styleRole": "site",
        "geographicCertainty": "unknown"
      },
      "geometry": {
        "type": "Point",
        "coordinates": [
          6000,
          5500
        ]
      }
    },
    {
      "type": "Feature",
      "id": "scythe-of-elune-original-mystery-velindes-journal-theater-focus",
      "properties": {
        "name": "Velinde’s Journal editorial focus",
        "contentStatus": "research",
        "styleRole": "site",
        "geographicCertainty": "unknown"
      },
      "geometry": {
        "type": "Point",
        "coordinates": [
          4200,
          4800
        ]
      }
    },
    {
      "type": "Feature",
      "id": "scythe-of-elune-original-mystery-duskwood-worgen-theater-focus",
      "properties": {
        "name": "Duskwood worgen editorial focus",
        "contentStatus": "research",
        "styleRole": "site",
        "geographicCertainty": "unknown"
      },
      "geometry": {
        "type": "Point",
        "coordinates": [
          6500,
          5600
        ]
      }
    },
    {
      "type": "Feature",
      "id": "scythe-of-elune-original-mystery-wharfmaster-dizzywig-theater-focus",
      "properties": {
        "name": "Wharfmaster Dizzywig editorial focus",
        "contentStatus": "research",
        "styleRole": "site",
        "geographicCertainty": "unknown"
      },
      "geometry": {
        "type": "Point",
        "coordinates": [
          4100,
          5600
        ]
      }
    },
    {
      "type": "Feature",
      "id": "scythe-of-elune-original-mystery-caravaneer-ruzzgot-theater-focus",
      "properties": {
        "name": "Caravaneer Ruzzgot editorial focus",
        "contentStatus": "research",
        "styleRole": "site",
        "geographicCertainty": "unknown"
      },
      "geometry": {
        "type": "Point",
        "coordinates": [
          5500,
          5600
        ]
      }
    },
    {
      "type": "Feature",
      "id": "scythe-of-elune-original-mystery-clerk-daltry-theater-focus",
      "properties": {
        "name": "Clerk Daltry editorial focus",
        "contentStatus": "research",
        "styleRole": "site",
        "geographicCertainty": "unknown"
      },
      "geometry": {
        "type": "Point",
        "coordinates": [
          3500,
          5600
        ]
      }
    },
    {
      "type": "Feature",
      "id": "scythe-of-elune-original-mystery-jonathan-carevin-theater-focus",
      "properties": {
        "name": "Jonathan Carevin editorial focus",
        "contentStatus": "research",
        "styleRole": "site",
        "geographicCertainty": "unknown"
      },
      "geometry": {
        "type": "Point",
        "coordinates": [
          6200,
          5600
        ]
      }
    },
    {
      "type": "Feature",
      "id": "scythe-of-elune-original-mystery-jitters-theater-focus",
      "properties": {
        "name": "Jitters editorial focus",
        "contentStatus": "research",
        "styleRole": "site",
        "geographicCertainty": "unknown"
      },
      "geometry": {
        "type": "Point",
        "coordinates": [
          4100,
          5600
        ]
      }
    },
    {
      "type": "Feature",
      "id": "scythe-of-elune-original-mystery-book-from-svens-farm-theater-focus",
      "properties": {
        "name": "Book from Sven’s Farm editorial focus",
        "contentStatus": "research",
        "styleRole": "site",
        "geographicCertainty": "unknown"
      },
      "geometry": {
        "type": "Point",
        "coordinates": [
          5600,
          4900
        ]
      }
    },
    {
      "type": "Feature",
      "id": "scythe-of-elune-original-mystery-tome-artifact-theater-focus",
      "properties": {
        "name": "Tome of Mel’Thandris editorial focus",
        "contentStatus": "research",
        "styleRole": "site",
        "geographicCertainty": "unknown"
      },
      "geometry": {
        "type": "Point",
        "coordinates": [
          4700,
          4800
        ]
      }
    }
  ]
}
