{
  "type": "FeatureCollection",
  "features": [
    {
      "type": "Feature",
      "id": "shadowmourne-and-arthas-relics-darion-mograine-focus",
      "properties": {
        "name": "darion-mograine editorial cast/object focus",
        "contentStatus": "research",
        "styleRole": "site",
        "geographicCertainty": "unknown"
      },
      "geometry": {
        "type": "Point",
        "coordinates": [
          4000,
          5000
        ]
      }
    },
    {
      "type": "Feature",
      "id": "shadowmourne-and-arthas-relics-professor-putricide-focus",
      "properties": {
        "name": "professor-putricide editorial cast/object focus",
        "contentStatus": "research",
        "styleRole": "site",
        "geographicCertainty": "unknown"
      },
      "geometry": {
        "type": "Point",
        "coordinates": [
          4500,
          5000
        ]
      }
    },
    {
      "type": "Feature",
      "id": "shadowmourne-and-arthas-relics-sindragosa-focus",
      "properties": {
        "name": "sindragosa editorial cast/object focus",
        "contentStatus": "research",
        "styleRole": "site",
        "geographicCertainty": "unknown"
      },
      "geometry": {
        "type": "Point",
        "coordinates": [
          5000,
          5000
        ]
      }
    },
    {
      "type": "Feature",
      "id": "shadowmourne-and-arthas-relics-muradin-bronzebeard-focus",
      "properties": {
        "name": "muradin-bronzebeard editorial cast/object focus",
        "contentStatus": "research",
        "styleRole": "site",
        "geographicCertainty": "unknown"
      },
      "geometry": {
        "type": "Point",
        "coordinates": [
          5500,
          5000
        ]
      }
    },
    {
      "type": "Feature",
      "id": "shadowmourne-and-arthas-relics-alexandros-mograine-focus",
      "properties": {
        "name": "alexandros-mograine editorial cast/object focus",
        "contentStatus": "research",
        "styleRole": "site",
        "geographicCertainty": "unknown"
      },
      "geometry": {
        "type": "Point",
        "coordinates": [
          6000,
          5000
        ]
      }
    },
    {
      "type": "Feature",
      "id": "shadowmourne-and-arthas-relics-unnamed-shadowmourne-wielder-focus",
      "properties": {
        "name": "unnamed-shadowmourne-wielder editorial cast/object focus",
        "contentStatus": "research",
        "styleRole": "site",
        "geographicCertainty": "unknown"
      },
      "geometry": {
        "type": "Point",
        "coordinates": [
          4000,
          5400
        ]
      }
    },
    {
      "type": "Feature",
      "id": "shadowmourne-and-arthas-relics-lights-vengeance-focus",
      "properties": {
        "name": "lights-vengeance editorial cast/object focus",
        "contentStatus": "research",
        "styleRole": "site",
        "geographicCertainty": "unknown"
      },
      "geometry": {
        "type": "Point",
        "coordinates": [
          4500,
          5400
        ]
      }
    },
    {
      "type": "Feature",
      "id": "shadowmourne-and-arthas-relics-shadows-edge-focus",
      "properties": {
        "name": "shadows-edge editorial cast/object focus",
        "contentStatus": "research",
        "styleRole": "site",
        "geographicCertainty": "unknown"
      },
      "geometry": {
        "type": "Point",
        "coordinates": [
          5000,
          5400
        ]
      }
    },
    {
      "type": "Feature",
      "id": "shadowmourne-and-arthas-relics-shadowmourne-focus",
      "properties": {
        "name": "shadowmourne editorial cast/object focus",
        "contentStatus": "research",
        "styleRole": "site",
        "geographicCertainty": "unknown"
      },
      "geometry": {
        "type": "Point",
        "coordinates": [
          5500,
          5400
        ]
      }
    },
    {
      "type": "Feature",
      "id": "shadowmourne-and-arthas-relics-ashbringer-focus",
      "properties": {
        "name": "ashbringer editorial cast/object focus",
        "contentStatus": "research",
        "styleRole": "site",
        "geographicCertainty": "unknown"
      },
      "geometry": {
        "type": "Point",
        "coordinates": [
          6000,
          5400
        ]
      }
    },
    {
      "type": "Feature",
      "id": "shadowmourne-and-arthas-relics-sealed-chest-and-relics-focus",
      "properties": {
        "name": "sealed-chest-and-relics editorial cast/object focus",
        "contentStatus": "research",
        "styleRole": "site",
        "geographicCertainty": "unknown"
      },
      "geometry": {
        "type": "Point",
        "coordinates": [
          4000,
          5800
        ]
      }
    },
    {
      "type": "Feature",
      "id": "shadowmourne-and-arthas-relics-blood-of-sylvanas-focus",
      "properties": {
        "name": "blood-of-sylvanas editorial cast/object focus",
        "contentStatus": "research",
        "styleRole": "site",
        "geographicCertainty": "unknown"
      },
      "geometry": {
        "type": "Point",
        "coordinates": [
          4500,
          5800
        ]
      }
    },
    {
      "type": "Feature",
      "id": "shadowmourne-and-arthas-relics-badge-of-the-silver-hand-focus",
      "properties": {
        "name": "badge-of-the-silver-hand editorial cast/object focus",
        "contentStatus": "research",
        "styleRole": "site",
        "geographicCertainty": "unknown"
      },
      "geometry": {
        "type": "Point",
        "coordinates": [
          5000,
          5800
        ]
      }
    },
    {
      "type": "Feature",
      "id": "shadowmourne-and-arthas-relics-arthas-training-sword-focus",
      "properties": {
        "name": "arthas-training-sword editorial cast/object focus",
        "contentStatus": "research",
        "styleRole": "site",
        "geographicCertainty": "unknown"
      },
      "geometry": {
        "type": "Point",
        "coordinates": [
          5500,
          5800
        ]
      }
    },
    {
      "type": "Feature",
      "id": "shadowmourne-and-arthas-relics-jainas-locket-focus",
      "properties": {
        "name": "jainas-locket editorial cast/object focus",
        "contentStatus": "research",
        "styleRole": "site",
        "geographicCertainty": "unknown"
      },
      "geometry": {
        "type": "Point",
        "coordinates": [
          6000,
          5800
        ]
      }
    },
    {
      "type": "Feature",
      "id": "shadowmourne-and-arthas-relics-alexandros-soul-shard-focus",
      "properties": {
        "name": "alexandros-soul-shard editorial cast/object focus",
        "contentStatus": "research",
        "styleRole": "site",
        "geographicCertainty": "unknown"
      },
      "geometry": {
        "type": "Point",
        "coordinates": [
          4000,
          6200
        ]
      }
    },
    {
      "type": "Feature",
      "id": "shadowmourne-and-arthas-relics-arthas-as-the-lich-king-focus",
      "properties": {
        "name": "arthas-as-the-lich-king editorial cast/object focus",
        "contentStatus": "research",
        "styleRole": "site",
        "geographicCertainty": "unknown"
      },
      "geometry": {
        "type": "Point",
        "coordinates": [
          4500,
          6200
        ]
      }
    },
    {
      "type": "Feature",
      "id": "shadowmourne-and-arthas-relics-blood-queen-lanathel-focus",
      "properties": {
        "name": "blood-queen-lanathel editorial cast/object focus",
        "contentStatus": "research",
        "styleRole": "site",
        "geographicCertainty": "unknown"
      },
      "geometry": {
        "type": "Point",
        "coordinates": [
          5000,
          6200
        ]
      }
    },
    {
      "type": "Feature",
      "id": "shadowmourne-and-arthas-relics-jaina-proudmoore-focus",
      "properties": {
        "name": "jaina-proudmoore editorial cast/object focus",
        "contentStatus": "research",
        "styleRole": "site",
        "geographicCertainty": "unknown"
      },
      "geometry": {
        "type": "Point",
        "coordinates": [
          5500,
          6200
        ]
      }
    },
    {
      "type": "Feature",
      "id": "shadowmourne-and-arthas-relics-sylvanas-windrunner-focus",
      "properties": {
        "name": "sylvanas-windrunner editorial cast/object focus",
        "contentStatus": "research",
        "styleRole": "site",
        "geographicCertainty": "unknown"
      },
      "geometry": {
        "type": "Point",
        "coordinates": [
          6000,
          6200
        ]
      }
    },
    {
      "type": "Feature",
      "id": "shadowmourne-and-arthas-relics-tirion-fordring-focus",
      "properties": {
        "name": "tirion-fordring editorial cast/object focus",
        "contentStatus": "research",
        "styleRole": "site",
        "geographicCertainty": "unknown"
      },
      "geometry": {
        "type": "Point",
        "coordinates": [
          4000,
          6600
        ]
      }
    },
    {
      "type": "Feature",
      "id": "shadowmourne-and-arthas-relics-uther-lightbringer-focus",
      "properties": {
        "name": "uther-lightbringer editorial cast/object focus",
        "contentStatus": "research",
        "styleRole": "site",
        "geographicCertainty": "unknown"
      },
      "geometry": {
        "type": "Point",
        "coordinates": [
          4500,
          6600
        ]
      }
    }
  ]
}
