{
  "type": "FeatureCollection",
  "features": [
    {
      "type": "Feature",
      "id": "shattered-sun-and-sunwell-kael-thas-sunwell-appearance-focus",
      "properties": {
        "name": "Kael'thas Sunstrider editorial focus",
        "contentStatus": "research",
        "styleRole": "site",
        "geographicCertainty": "unknown"
      },
      "geometry": {
        "type": "Point",
        "coordinates": [
          2800,
          5400
        ]
      }
    },
    {
      "type": "Feature",
      "id": "shattered-sun-and-sunwell-kalecgos-dragon-form-focus",
      "properties": {
        "name": "Kalecgos in dragon form editorial focus",
        "contentStatus": "research",
        "styleRole": "site",
        "geographicCertainty": "unknown"
      },
      "geometry": {
        "type": "Point",
        "coordinates": [
          2800,
          5400
        ]
      }
    },
    {
      "type": "Feature",
      "id": "shattered-sun-and-sunwell-sathrovarr-the-corruptor-focus",
      "properties": {
        "name": "Sathrovarr the Corruptor editorial focus",
        "contentStatus": "research",
        "styleRole": "site",
        "geographicCertainty": "unknown"
      },
      "geometry": {
        "type": "Point",
        "coordinates": [
          5000,
          5400
        ]
      }
    },
    {
      "type": "Feature",
      "id": "shattered-sun-and-sunwell-brutallus-focus",
      "properties": {
        "name": "Brutallus editorial focus",
        "contentStatus": "research",
        "styleRole": "site",
        "geographicCertainty": "unknown"
      },
      "geometry": {
        "type": "Point",
        "coordinates": [
          2800,
          5400
        ]
      }
    },
    {
      "type": "Feature",
      "id": "shattered-sun-and-sunwell-madrigosa-focus",
      "properties": {
        "name": "Madrigosa editorial focus",
        "contentStatus": "research",
        "styleRole": "site",
        "geographicCertainty": "unknown"
      },
      "geometry": {
        "type": "Point",
        "coordinates": [
          5000,
          5400
        ]
      }
    },
    {
      "type": "Feature",
      "id": "shattered-sun-and-sunwell-felmyst-focus",
      "properties": {
        "name": "Felmyst editorial focus",
        "contentStatus": "research",
        "styleRole": "site",
        "geographicCertainty": "unknown"
      },
      "geometry": {
        "type": "Point",
        "coordinates": [
          2800,
          5400
        ]
      }
    },
    {
      "type": "Feature",
      "id": "shattered-sun-and-sunwell-eredar-twins-focus",
      "properties": {
        "name": "The Eredar Twins: Lady Sacrolash and Alythess editorial focus",
        "contentStatus": "research",
        "styleRole": "site",
        "geographicCertainty": "unknown"
      },
      "geometry": {
        "type": "Point",
        "coordinates": [
          2800,
          5400
        ]
      }
    },
    {
      "type": "Feature",
      "id": "shattered-sun-and-sunwell-muru-entropius-focus",
      "properties": {
        "name": "M'uru / Entropius editorial focus",
        "contentStatus": "research",
        "styleRole": "site",
        "geographicCertainty": "unknown"
      },
      "geometry": {
        "type": "Point",
        "coordinates": [
          2800,
          5400
        ]
      }
    },
    {
      "type": "Feature",
      "id": "shattered-sun-and-sunwell-kiljaeden-sunwell-appearance-focus",
      "properties": {
        "name": "Kil'jaeden at the Sunwell editorial focus",
        "contentStatus": "research",
        "styleRole": "site",
        "geographicCertainty": "unknown"
      },
      "geometry": {
        "type": "Point",
        "coordinates": [
          5000,
          5400
        ]
      }
    },
    {
      "type": "Feature",
      "id": "shattered-sun-and-sunwell-anveena-teague-focus",
      "properties": {
        "name": "Anveena Teague editorial focus",
        "contentStatus": "research",
        "styleRole": "site",
        "geographicCertainty": "unknown"
      },
      "geometry": {
        "type": "Point",
        "coordinates": [
          7200,
          5400
        ]
      }
    },
    {
      "type": "Feature",
      "id": "shattered-sun-and-sunwell-lor-themar-theron-focus",
      "properties": {
        "name": "Lor’themar Theron editorial focus",
        "contentStatus": "research",
        "styleRole": "site",
        "geographicCertainty": "unknown"
      },
      "geometry": {
        "type": "Point",
        "coordinates": [
          2800,
          5400
        ]
      }
    },
    {
      "type": "Feature",
      "id": "shattered-sun-and-sunwell-prophet-velen-focus",
      "properties": {
        "name": "Prophet Velen editorial focus",
        "contentStatus": "research",
        "styleRole": "site",
        "geographicCertainty": "unknown"
      },
      "geometry": {
        "type": "Point",
        "coordinates": [
          2800,
          5400
        ]
      }
    },
    {
      "type": "Feature",
      "id": "shattered-sun-and-sunwell-lady-liadrin-focus",
      "properties": {
        "name": "Lady Liadrin editorial focus",
        "contentStatus": "research",
        "styleRole": "site",
        "geographicCertainty": "unknown"
      },
      "geometry": {
        "type": "Point",
        "coordinates": [
          5000,
          5400
        ]
      }
    },
    {
      "type": "Feature",
      "id": "shattered-sun-and-sunwell-muru-heart-focus",
      "properties": {
        "name": "The recovered heart of M'uru editorial focus",
        "contentStatus": "research",
        "styleRole": "site",
        "geographicCertainty": "unknown"
      },
      "geometry": {
        "type": "Point",
        "coordinates": [
          7200,
          5400
        ]
      }
    }
  ]
}
