{
  "type": "FeatureCollection",
  "name": "Swift Flight Form relational story theater",
  "features": [
    {
      "type": "Feature",
      "id": "swift-flight-form-raven-legacy-morthis-whisperwing-focus",
      "properties": {
        "name": "Morthis Whisperwing relational story focus",
        "contentStatus": "research",
        "styleRole": "site",
        "geographicCertainty": "unknown"
      },
      "geometry": {
        "type": "Point",
        "coordinates": [
          6200,
          5000
        ]
      }
    },
    {
      "type": "Feature",
      "id": "swift-flight-form-raven-legacy-swift-flight-seeker-focus",
      "properties": {
        "name": "Druid seeker · representative viewpoint relational story focus",
        "contentStatus": "research",
        "styleRole": "site",
        "geographicCertainty": "unknown"
      },
      "geometry": {
        "type": "Point",
        "coordinates": [
          6315,
          5316
        ]
      }
    },
    {
      "type": "Feature",
      "id": "swift-flight-form-raven-legacy-clintar-dreamwalker-focus",
      "properties": {
        "name": "Clintar Dreamwalker relational story focus",
        "contentStatus": "research",
        "styleRole": "site",
        "geographicCertainty": "unknown"
      },
      "geometry": {
        "type": "Point",
        "coordinates": [
          6247,
          5679
        ]
      }
    },
    {
      "type": "Feature",
      "id": "swift-flight-form-raven-legacy-clintar-divided-spirit-focus",
      "properties": {
        "name": "Clintar’s divided spirit relational story focus",
        "contentStatus": "research",
        "styleRole": "site",
        "geographicCertainty": "unknown"
      },
      "geometry": {
        "type": "Point",
        "coordinates": [
          5968,
          6037
        ]
      }
    },
    {
      "type": "Feature",
      "id": "swift-flight-form-raven-legacy-dreamwarden-lurosa-focus",
      "properties": {
        "name": "Dreamwarden Lurosa relational story focus",
        "contentStatus": "research",
        "styleRole": "site",
        "geographicCertainty": "unknown"
      },
      "geometry": {
        "type": "Point",
        "coordinates": [
          5295,
          5814
        ]
      }
    },
    {
      "type": "Feature",
      "id": "swift-flight-form-raven-legacy-aspect-of-raven-focus",
      "properties": {
        "name": "Aspect of the Raven relational story focus",
        "contentStatus": "research",
        "styleRole": "site",
        "geographicCertainty": "unknown"
      },
      "geometry": {
        "type": "Point",
        "coordinates": [
          4885,
          5970
        ]
      }
    },
    {
      "type": "Feature",
      "id": "swift-flight-form-raven-legacy-arthorn-windsong-focus",
      "properties": {
        "name": "Arthorn Windsong relational story focus",
        "contentStatus": "research",
        "styleRole": "site",
        "geographicCertainty": "unknown"
      },
      "geometry": {
        "type": "Point",
        "coordinates": [
          4365,
          6013
        ]
      }
    },
    {
      "type": "Feature",
      "id": "swift-flight-form-raven-legacy-timeon-focus",
      "properties": {
        "name": "Timeon relational story focus",
        "contentStatus": "research",
        "styleRole": "site",
        "geographicCertainty": "unknown"
      },
      "geometry": {
        "type": "Point",
        "coordinates": [
          3801,
          5912
        ]
      }
    },
    {
      "type": "Feature",
      "id": "swift-flight-form-raven-legacy-saikkal-focus",
      "properties": {
        "name": "Sai’kkal relational story focus",
        "contentStatus": "research",
        "styleRole": "site",
        "geographicCertainty": "unknown"
      },
      "geometry": {
        "type": "Point",
        "coordinates": [
          3945,
          5400
        ]
      }
    },
    {
      "type": "Feature",
      "id": "swift-flight-form-raven-legacy-watcher-elaira-focus",
      "properties": {
        "name": "Watcher Elaira relational story focus",
        "contentStatus": "research",
        "styleRole": "site",
        "geographicCertainty": "unknown"
      },
      "geometry": {
        "type": "Point",
        "coordinates": [
          3629,
          5160
        ]
      }
    },
    {
      "type": "Feature",
      "id": "swift-flight-form-raven-legacy-wild-sparrowhawk-focus",
      "properties": {
        "name": "Wild sparrowhawk relational story focus",
        "contentStatus": "research",
        "styleRole": "site",
        "geographicCertainty": "unknown"
      },
      "geometry": {
        "type": "Point",
        "coordinates": [
          3442,
          4818
        ]
      }
    },
    {
      "type": "Feature",
      "id": "swift-flight-form-raven-legacy-raven-book-artifact-focus",
      "properties": {
        "name": "The Raven’s Book relational story focus",
        "contentStatus": "research",
        "styleRole": "site",
        "geographicCertainty": "unknown"
      },
      "geometry": {
        "type": "Point",
        "coordinates": [
          3443,
          4410
        ]
      }
    },
    {
      "type": "Feature",
      "id": "swift-flight-form-raven-legacy-guardian-of-eagle-focus",
      "properties": {
        "name": "Guardian of the Eagle relational story focus",
        "contentStatus": "research",
        "styleRole": "site",
        "geographicCertainty": "unknown"
      },
      "geometry": {
        "type": "Point",
        "coordinates": [
          4187,
          4382
        ]
      }
    },
    {
      "type": "Feature",
      "id": "swift-flight-form-raven-legacy-guardian-of-falcon-focus",
      "properties": {
        "name": "Guardian of the Falcon relational story focus",
        "contentStatus": "research",
        "styleRole": "site",
        "geographicCertainty": "unknown"
      },
      "geometry": {
        "type": "Point",
        "coordinates": [
          4442,
          4109
        ]
      }
    },
    {
      "type": "Feature",
      "id": "swift-flight-form-raven-legacy-guardian-of-hawk-focus",
      "properties": {
        "name": "Guardian of the Hawk relational story focus",
        "contentStatus": "research",
        "styleRole": "site",
        "geographicCertainty": "unknown"
      },
      "geometry": {
        "type": "Point",
        "coordinates": [
          4870,
          3898
        ]
      }
    },
    {
      "type": "Feature",
      "id": "swift-flight-form-raven-legacy-rizzle-sprysprocket-focus",
      "properties": {
        "name": "Rizzle Sprysprocket relational story focus",
        "contentStatus": "research",
        "styleRole": "site",
        "geographicCertainty": "unknown"
      },
      "geometry": {
        "type": "Point",
        "coordinates": [
          5435,
          3799
        ]
      }
    },
    {
      "type": "Feature",
      "id": "swift-flight-form-raven-legacy-southfury-moonstone-focus",
      "properties": {
        "name": "Southfury Moonstone relational story focus",
        "contentStatus": "research",
        "styleRole": "site",
        "geographicCertainty": "unknown"
      },
      "geometry": {
        "type": "Point",
        "coordinates": [
          5656,
          4297
        ]
      }
    },
    {
      "type": "Feature",
      "id": "swift-flight-form-raven-legacy-anzu-raven-god-focus",
      "properties": {
        "name": "Anzu, the Raven God relational story focus",
        "contentStatus": "research",
        "styleRole": "site",
        "geographicCertainty": "unknown"
      },
      "geometry": {
        "type": "Point",
        "coordinates": [
          6097,
          4402
        ]
      }
    },
    {
      "type": "Feature",
      "id": "swift-flight-form-raven-legacy-swift-flight-stormcrow-focus",
      "properties": {
        "name": "Swift Flight Form · stormcrow interpretation relational story focus",
        "contentStatus": "research",
        "styleRole": "site",
        "geographicCertainty": "unknown"
      },
      "geometry": {
        "type": "Point",
        "coordinates": [
          6494,
          4641
        ]
      }
    }
  ]
}
