{
  "type": "FeatureCollection",
  "features": [
    {
      "type": "Feature",
      "id": "tirion-taelan-of-love-and-family-tirion-fordring-focus",
      "properties": {
        "name": "Highlord Tirion Fordring editorial focus",
        "contentStatus": "research",
        "styleRole": "site",
        "geographicCertainty": "unknown"
      },
      "geometry": {
        "type": "Point",
        "coordinates": [
          2800,
          5300
        ]
      }
    },
    {
      "type": "Feature",
      "id": "tirion-taelan-of-love-and-family-taelans-miniature-warhammer-focus",
      "properties": {
        "name": "Taelan’s miniature warhammer editorial focus",
        "contentStatus": "research",
        "styleRole": "site",
        "geographicCertainty": "unknown"
      },
      "geometry": {
        "type": "Point",
        "coordinates": [
          2800,
          5300
        ]
      }
    },
    {
      "type": "Feature",
      "id": "tirion-taelan-of-love-and-family-silver-hand-insignia-focus",
      "properties": {
        "name": "Silver Hand insignia editorial focus",
        "contentStatus": "research",
        "styleRole": "site",
        "geographicCertainty": "unknown"
      },
      "geometry": {
        "type": "Point",
        "coordinates": [
          4266.666666666667,
          5300
        ]
      }
    },
    {
      "type": "Feature",
      "id": "tirion-taelan-of-love-and-family-artist-renfray-focus",
      "properties": {
        "name": "Artist Renfray editorial focus",
        "contentStatus": "research",
        "styleRole": "site",
        "geographicCertainty": "unknown"
      },
      "geometry": {
        "type": "Point",
        "coordinates": [
          2800,
          5300
        ]
      }
    },
    {
      "type": "Feature",
      "id": "tirion-taelan-of-love-and-family-portrait-of-love-and-family-focus",
      "properties": {
        "name": "Of Love and Family — recovered portrait editorial focus",
        "contentStatus": "research",
        "styleRole": "site",
        "geographicCertainty": "unknown"
      },
      "geometry": {
        "type": "Point",
        "coordinates": [
          5733.333333333334,
          5300
        ]
      }
    },
    {
      "type": "Feature",
      "id": "tirion-taelan-of-love-and-family-taelan-fordring-focus",
      "properties": {
        "name": "Highlord Taelan Fordring editorial focus",
        "contentStatus": "research",
        "styleRole": "site",
        "geographicCertainty": "unknown"
      },
      "geometry": {
        "type": "Point",
        "coordinates": [
          7200,
          5300
        ]
      }
    },
    {
      "type": "Feature",
      "id": "tirion-taelan-of-love-and-family-scarlet-crusade-focus",
      "properties": {
        "name": "Scarlet Crusade pursuers editorial focus",
        "contentStatus": "research",
        "styleRole": "site",
        "geographicCertainty": "unknown"
      },
      "geometry": {
        "type": "Point",
        "coordinates": [
          2800,
          5300
        ]
      }
    },
    {
      "type": "Feature",
      "id": "tirion-taelan-of-love-and-family-grand-inquisitor-isillien-focus",
      "properties": {
        "name": "Grand Inquisitor Isillien editorial focus",
        "contentStatus": "research",
        "styleRole": "site",
        "geographicCertainty": "unknown"
      },
      "geometry": {
        "type": "Point",
        "coordinates": [
          4266.666666666667,
          5300
        ]
      }
    },
    {
      "type": "Feature",
      "id": "tirion-taelan-of-love-and-family-myranda-the-hag-focus",
      "properties": {
        "name": "Myranda the Hag editorial focus",
        "contentStatus": "research",
        "styleRole": "site",
        "geographicCertainty": "unknown"
      },
      "geometry": {
        "type": "Point",
        "coordinates": [
          7200,
          5300
        ]
      }
    }
  ]
}
