{
  "type": "FeatureCollection",
  "name": "Wrathgate and Undercity relational story theater",
  "features": [
    {
      "type": "Feature",
      "id": "wrathgate-and-undercity-theater-arthas-as-the-lich-king-focus",
      "properties": {
        "name": "arthas-as-the-lich-king relational story focus",
        "contentStatus": "research",
        "styleRole": "site",
        "geographicCertainty": "unknown"
      },
      "geometry": {
        "type": "Point",
        "coordinates": [
          6900,
          5100
        ]
      }
    },
    {
      "type": "Feature",
      "id": "wrathgate-and-undercity-theater-dranosh-saurfang-focus",
      "properties": {
        "name": "dranosh-saurfang relational story focus",
        "contentStatus": "research",
        "styleRole": "site",
        "geographicCertainty": "unknown"
      },
      "geometry": {
        "type": "Point",
        "coordinates": [
          4100,
          5000
        ]
      }
    },
    {
      "type": "Feature",
      "id": "wrathgate-and-undercity-theater-bolvar-fordragon-focus",
      "properties": {
        "name": "bolvar-fordragon relational story focus",
        "contentStatus": "research",
        "styleRole": "site",
        "geographicCertainty": "unknown"
      },
      "geometry": {
        "type": "Point",
        "coordinates": [
          5200,
          5600
        ]
      }
    },
    {
      "type": "Feature",
      "id": "wrathgate-and-undercity-theater-varian-wrynn-focus",
      "properties": {
        "name": "varian-wrynn relational story focus",
        "contentStatus": "research",
        "styleRole": "site",
        "geographicCertainty": "unknown"
      },
      "geometry": {
        "type": "Point",
        "coordinates": [
          4100,
          5000
        ]
      }
    },
    {
      "type": "Feature",
      "id": "wrathgate-and-undercity-theater-thrall-focus",
      "properties": {
        "name": "thrall relational story focus",
        "contentStatus": "research",
        "styleRole": "site",
        "geographicCertainty": "unknown"
      },
      "geometry": {
        "type": "Point",
        "coordinates": [
          5000,
          5000
        ]
      }
    },
    {
      "type": "Feature",
      "id": "wrathgate-and-undercity-theater-sylvanas-windrunner-focus",
      "properties": {
        "name": "sylvanas-windrunner relational story focus",
        "contentStatus": "research",
        "styleRole": "site",
        "geographicCertainty": "unknown"
      },
      "geometry": {
        "type": "Point",
        "coordinates": [
          6600,
          5000
        ]
      }
    },
    {
      "type": "Feature",
      "id": "wrathgate-and-undercity-theater-jaina-proudmoore-focus",
      "properties": {
        "name": "jaina-proudmoore relational story focus",
        "contentStatus": "research",
        "styleRole": "site",
        "geographicCertainty": "unknown"
      },
      "geometry": {
        "type": "Point",
        "coordinates": [
          6100,
          5600
        ]
      }
    },
    {
      "type": "Feature",
      "id": "wrathgate-and-undercity-theater-grand-apothecary-putress-focus",
      "properties": {
        "name": "grand-apothecary-putress relational story focus",
        "contentStatus": "research",
        "styleRole": "site",
        "geographicCertainty": "unknown"
      },
      "geometry": {
        "type": "Point",
        "coordinates": [
          5200,
          5000
        ]
      }
    },
    {
      "type": "Feature",
      "id": "wrathgate-and-undercity-theater-varimathras-wrathgate-focus",
      "properties": {
        "name": "varimathras-wrathgate relational story focus",
        "contentStatus": "research",
        "styleRole": "site",
        "geographicCertainty": "unknown"
      },
      "geometry": {
        "type": "Point",
        "coordinates": [
          6500,
          5400
        ]
      }
    }
  ]
}
