{
  "type": "FeatureCollection",
  "features": [
    {
      "type": "Feature",
      "id": "yehkinya-and-hakkars-return-yehkinya-theater-focus",
      "properties": {
        "name": "Yeh'kinya editorial focus",
        "contentStatus": "research",
        "styleRole": "site",
        "geographicCertainty": "unknown"
      },
      "geometry": {
        "type": "Point",
        "coordinates": [
          4800,
          5300
        ]
      }
    },
    {
      "type": "Feature",
      "id": "yehkinya-and-hakkars-return-prospector-ironboot-theater-focus",
      "properties": {
        "name": "Prospector Ironboot editorial focus",
        "contentStatus": "research",
        "styleRole": "site",
        "geographicCertainty": "unknown"
      },
      "geometry": {
        "type": "Point",
        "coordinates": [
          5100,
          5700
        ]
      }
    },
    {
      "type": "Feature",
      "id": "yehkinya-and-hakkars-return-molthor-theater-focus",
      "properties": {
        "name": "Molthor editorial focus",
        "contentStatus": "research",
        "styleRole": "site",
        "geographicCertainty": "unknown"
      },
      "geometry": {
        "type": "Point",
        "coordinates": [
          4900,
          5300
        ]
      }
    },
    {
      "type": "Feature",
      "id": "yehkinya-and-hakkars-return-vale-screecher-spirits-theater-focus",
      "properties": {
        "name": "Vale Screecher spirits editorial focus",
        "contentStatus": "research",
        "styleRole": "site",
        "geographicCertainty": "unknown"
      },
      "geometry": {
        "type": "Point",
        "coordinates": [
          5000,
          4500
        ]
      }
    },
    {
      "type": "Feature",
      "id": "yehkinya-and-hakkars-return-atalai-bloodrinkers-theater-focus",
      "properties": {
        "name": "Atal'ai bloodrinkers editorial focus",
        "contentStatus": "research",
        "styleRole": "site",
        "geographicCertainty": "unknown"
      },
      "geometry": {
        "type": "Point",
        "coordinates": [
          4800,
          4300
        ]
      }
    },
    {
      "type": "Feature",
      "id": "yehkinya-and-hakkars-return-avatar-of-hakkar-theater-focus",
      "properties": {
        "name": "Avatar of Hakkar editorial focus",
        "contentStatus": "research",
        "styleRole": "site",
        "geographicCertainty": "unknown"
      },
      "geometry": {
        "type": "Point",
        "coordinates": [
          5200,
          5700
        ]
      }
    },
    {
      "type": "Feature",
      "id": "yehkinya-and-hakkars-return-yehkinya-wind-serpent-theater-focus",
      "properties": {
        "name": "Yeh'kinya's wind-serpent escape editorial focus",
        "contentStatus": "research",
        "styleRole": "site",
        "geographicCertainty": "unknown"
      },
      "geometry": {
        "type": "Point",
        "coordinates": [
          5100,
          5900
        ]
      }
    },
    {
      "type": "Feature",
      "id": "yehkinya-and-hakkars-return-yehkinyas-bramble-theater-focus",
      "properties": {
        "name": "Yeh'kinya's bramble editorial focus",
        "contentStatus": "research",
        "styleRole": "site",
        "geographicCertainty": "unknown"
      },
      "geometry": {
        "type": "Point",
        "coordinates": [
          5400,
          4100
        ]
      }
    },
    {
      "type": "Feature",
      "id": "yehkinya-and-hakkars-return-mosharu-tablets-theater-focus",
      "properties": {
        "name": "Tablets of Mosh'aru editorial focus",
        "contentStatus": "research",
        "styleRole": "site",
        "geographicCertainty": "unknown"
      },
      "geometry": {
        "type": "Point",
        "coordinates": [
          4600,
          3100
        ]
      }
    },
    {
      "type": "Feature",
      "id": "yehkinya-and-hakkars-return-ancient-egg-theater-focus",
      "properties": {
        "name": "The Ancient Egg editorial focus",
        "contentStatus": "research",
        "styleRole": "site",
        "geographicCertainty": "unknown"
      },
      "geometry": {
        "type": "Point",
        "coordinates": [
          5400,
          5900
        ]
      }
    },
    {
      "type": "Feature",
      "id": "yehkinya-and-hakkars-return-filled-egg-of-hakkar-theater-focus",
      "properties": {
        "name": "The egg bearing Hakkar's essence editorial focus",
        "contentStatus": "research",
        "styleRole": "site",
        "geographicCertainty": "unknown"
      },
      "geometry": {
        "type": "Point",
        "coordinates": [
          4700,
          3000
        ]
      }
    },
    {
      "type": "Feature",
      "id": "yehkinya-and-hakkars-return-zulgurub-focus",
      "properties": {
        "name": "Zul'Gurub editorial focus",
        "contentStatus": "research",
        "styleRole": "site",
        "geographicCertainty": "unknown"
      },
      "geometry": {
        "type": "Point",
        "coordinates": [
          5000,
          5000
        ]
      }
    },
    {
      "type": "Feature",
      "id": "yehkinya-and-hakkars-return-jindo-hexxer-focus",
      "properties": {
        "name": "Jin'do editorial focus",
        "contentStatus": "research",
        "styleRole": "site",
        "geographicCertainty": "unknown"
      },
      "geometry": {
        "type": "Point",
        "coordinates": [
          4450,
          5000
        ]
      }
    },
    {
      "type": "Feature",
      "id": "yehkinya-and-hakkars-return-hakkar-priests-focus",
      "properties": {
        "name": "Hakkar priests editorial focus",
        "contentStatus": "research",
        "styleRole": "site",
        "geographicCertainty": "unknown"
      },
      "geometry": {
        "type": "Point",
        "coordinates": [
          5550,
          5000
        ]
      }
    },
    {
      "type": "Feature",
      "id": "yehkinya-and-hakkars-return-hakkar-soulflayer-focus",
      "properties": {
        "name": "Hakkar physical manifestation editorial focus",
        "contentStatus": "research",
        "styleRole": "site",
        "geographicCertainty": "unknown"
      },
      "geometry": {
        "type": "Point",
        "coordinates": [
          5000,
          4300
        ]
      }
    }
  ]
}
